{"type":"FeatureCollection","features":[{"type":"Feature","properties":{"tam_code":"390101","tam_th":"หนองบัว","amp_th":"เมืองหนองบัวลำภู","area_sqkm":75.97},"geometry":{"type":"Polygon","coordinates":[[[102.3648795937923,17.125727930643876],[102.3876035732825,17.162295312605625],[102.42370807378363,17.190659348249298],[102.4377185572238,17.211217523297037],[102.50363592872552,17.195067019545544],[102.50889919166332,17.18169349109859],[102.491484146976,17.15069220412278],[102.43991635978038,17.138447148312228],[102.3768225383614,17.130616272397923],[102.3648795937923,17.125727930643876]]]}},{"type":"Feature","properties":{"tam_code":"390102","tam_th":"หนองภัยศูนย์","amp_th":"เมืองหนองบัวลำภู","area_sqkm":44.03},"geometry":{"type":"Polygon","coordinates":[[[102.43882821128854,17.283996552562282],[102.42157391492032,17.233059161481],[102.41123869380223,17.22929380020624],[102.39551999553292,17.226797853845145],[102.37548576696142,17.240062007459404],[102.37158458009004,17.251461238247973],[102.36111793480619,17.257705829960816],[102.34451610973304,17.28864066134052],[102.43882821128854,17.283996552562282]]]}},{"type":"Feature","properties":{"tam_code":"390103","tam_th":"โพธิ์ชัย","amp_th":"เมืองหนองบัวลำภู","area_sqkm":42.15},"geometry":{"type":"Polygon","coordinates":[[[102.41123869380223,17.22929380020624],[102.40577397838027,17.215040547454656],[102.40724430598591,17.20709523619808],[102.42303802438555,17.19730597568257],[102.42370807378363,17.190659348249298],[102.3876035732825,17.162295312605625],[102.38371473485391,17.182141757838135],[102.36107094541823,17.194546180355253],[102.36502845204706,17.207091184134633],[102.3541455876132,17.210493030906758],[102.34943129700166,17.218563433420137],[102.33897319855916,17.223349888979754],[102.34284680095794,17.23836674277724],[102.35706527013923,17.248581290381136],[102.36111793480619,17.257705829960816],[102.37158458009004,17.251461238247973],[102.37548576696142,17.240062007459404],[102.39551999553292,17.226797853845145],[102.41123869380223,17.22929380020624]]]}},{"type":"Feature","properties":{"tam_code":"390104","tam_th":"หนองสวรรค์","amp_th":"เมืองหนองบัวลำภู","area_sqkm":39.14},"geometry":{"type":"Polygon","coordinates":[[[102.30293444339355,17.226731992338937],[102.31608222464413,17.226098133068525],[102.32577379523632,17.217922352486205],[102.33897319855916,17.223349888979754],[102.34943129700166,17.218563433420137],[102.3541455876132,17.210493030906758],[102.36502845204706,17.207091184134633],[102.36107094541823,17.194546180355253],[102.32625649803202,17.171662433444073],[102.27581157665597,17.206886056629717],[102.26987170772237,17.222414561158892],[102.27894010509156,17.23916677595884],[102.30293444339355,17.226731992338937]]]}},{"type":"Feature","properties":{"tam_code":"390105","tam_th":"หัวนา","amp_th":"เมืองหนองบัวลำภู","area_sqkm":101.55},"geometry":{"type":"Polygon","coordinates":[[[102.43859122589599,17.075167465045443],[102.43829619013292,17.06633831813471],[102.4340145820131,17.065623367160484],[102.43133947199829,17.057151485280325],[102.43754719272071,17.04311930009054],[102.43064517128559,17.034522562506123],[102.43702965157279,17.02145554094293],[102.44872982391274,17.015064414767693],[102.41822612024136,16.96314217397279],[102.39384608151103,16.98771764955288],[102.36442751721611,17.001854160644598],[102.34539773576044,17.022687972808342],[102.32893789084262,17.029880730734607],[102.32733189188187,17.043574800438325],[102.32263263435327,17.053928857969268],[102.33024586390592,17.07033661627407],[102.41660527616204,17.07723060603762],[102.43859122589599,17.075167465045443]]]}},{"type":"Feature","properties":{"tam_code":"390106","tam_th":"บ้านขาม","amp_th":"เมืองหนองบัวลำภู","area_sqkm":69.4},"geometry":{"type":"Polygon","coordinates":[[[102.50693842862903,17.139160645911563],[102.52021691134266,17.100316143957194],[102.50893941907934,17.089944406319095],[102.46357983369876,17.07018729099312],[102.44620598094365,17.0570337084367],[102.43133947199829,17.057151485280325],[102.4340145820131,17.065623367160484],[102.43829619013292,17.06633831813471],[102.43991635978038,17.138447148312228],[102.491484146976,17.15069220412278],[102.50889919166332,17.18169349109859],[102.52055413180548,17.151130434689232],[102.52059498813789,17.145365968700503],[102.50693842862903,17.139160645911563]]]}},{"type":"Feature","properties":{"tam_code":"390107","tam_th":"นามะเฟือง","amp_th":"เมืองหนองบัวลำภู","area_sqkm":92.11},"geometry":{"type":"Polygon","coordinates":[[[102.5805075854595,17.040515943744158],[102.57473501931837,17.032685945047348],[102.54496419598999,17.01392451595184],[102.52297609980957,17.01193989857631],[102.50368129473802,17.002009130535882],[102.49544563765198,17.003943522116813],[102.48521716331894,17.022348540535987],[102.47118394987298,17.028138446999172],[102.45936278475308,17.024498491633913],[102.44872982391274,17.015064414767693],[102.43702965157279,17.02145554094293],[102.43064517128559,17.034522562506123],[102.43754719272071,17.04311930009054],[102.43133947199829,17.057151485280325],[102.44620598094365,17.0570337084367],[102.46357983369876,17.07018729099312],[102.50893941907934,17.089944406319095],[102.52021691134266,17.100316143957194],[102.54382769946864,17.067215144824896],[102.5805075854595,17.040515943744158]]]}},{"type":"Feature","properties":{"tam_code":"390108","tam_th":"บ้านพร้าว","amp_th":"เมืองหนองบัวลำภู","area_sqkm":64.52},"geometry":{"type":"Polygon","coordinates":[[[102.43859122589599,17.075167465045443],[102.41660527616204,17.07723060603762],[102.33024586390592,17.07033661627407],[102.33133478689031,17.084610374809845],[102.34732271457965,17.100696330505627],[102.3502964581927,17.115702398145654],[102.3648795937923,17.125727930643876],[102.3768225383614,17.130616272397923],[102.43991635978038,17.138447148312228],[102.43859122589599,17.075167465045443]]]}},{"type":"Feature","properties":{"tam_code":"390109","tam_th":"โนนขมิ้น","amp_th":"เมืองหนองบัวลำภู","area_sqkm":54.9},"geometry":{"type":"Polygon","coordinates":[[[102.31922612469747,17.117800062489938],[102.28213828288418,17.127240713863063],[102.27457581096586,17.13476114294748],[102.25567665626188,17.13959826203462],[102.24932015089517,17.13554576404955],[102.24222886199006,17.1373207263256],[102.24513103788352,17.1461209747766],[102.24033729493753,17.151438371158644],[102.24289228698008,17.163140863705728],[102.27581157665597,17.206886056629717],[102.32625649803202,17.171662433444073],[102.32171696527828,17.162277169701127],[102.31922612469747,17.117800062489938]]]}},{"type":"Feature","properties":{"tam_code":"390110","tam_th":"ลำภู","amp_th":"เมืองหนองบัวลำภู","area_sqkm":31.56},"geometry":{"type":"Polygon","coordinates":[[[102.47206198806363,17.202173186066855],[102.4377185572238,17.211217523297037],[102.42370807378363,17.190659348249298],[102.42303802438555,17.19730597568257],[102.40724430598591,17.20709523619808],[102.40577397838027,17.215040547454656],[102.41123869380223,17.22929380020624],[102.42157391492032,17.233059161481],[102.43866964603613,17.2826679614135],[102.45914560295759,17.241026663229302],[102.47206198806363,17.202173186066855]]]}},{"type":"Feature","properties":{"tam_code":"390111","tam_th":"กุดจิก","amp_th":"เมืองหนองบัวลำภู","area_sqkm":112.16},"geometry":{"type":"Polygon","coordinates":[[[102.42166283971396,17.3750629349253],[102.43782386252451,17.339368002824948],[102.44140439575716,17.322298450321448],[102.43882821128854,17.283996552562282],[102.34451610973304,17.28864066134052],[102.33362774696118,17.324251535269802],[102.30663604153403,17.34918009066155],[102.30820877942381,17.359494252609664],[102.30279706873583,17.377227858367934],[102.31478847071425,17.367024052879465],[102.34243999783828,17.359871070816915],[102.38054979529282,17.38228047355957],[102.42166283971396,17.3750629349253]]]}},{"type":"Feature","properties":{"tam_code":"390112","tam_th":"โนนทัน","amp_th":"เมืองหนองบัวลำภู","area_sqkm":78.71},"geometry":{"type":"Polygon","coordinates":[[[102.52176409255947,17.274724242333868],[102.53664517299883,17.258316582158763],[102.5709748885678,17.255119865613963],[102.59293332450996,17.265497854041417],[102.57321969400117,17.236169639467622],[102.55181854715394,17.235938700270076],[102.54192853616314,17.217101998061587],[102.53546676844029,17.228830961113616],[102.52176038491986,17.225259502317897],[102.50363592872552,17.195067019545544],[102.47206198806363,17.202173186066855],[102.45914560295759,17.241026663229302],[102.43945658158367,17.280462317692653],[102.45835557611022,17.281710011077934],[102.46260096006043,17.275378591166938],[102.47826804769767,17.27508834804902],[102.48990677472749,17.284274889903536],[102.5033255300522,17.28603771471704],[102.52176409255947,17.274724242333868]]]}},{"type":"Feature","properties":{"tam_code":"390113","tam_th":"นาคำไฮ","amp_th":"เมืองหนองบัวลำภู","area_sqkm":102.37},"geometry":{"type":"Polygon","coordinates":[[[102.34451610973304,17.28864066134052],[102.36111793480619,17.257705829960816],[102.35706527013923,17.248581290381136],[102.34284680095794,17.23836674277724],[102.33897319855916,17.223349888979754],[102.32577379523632,17.217922352486205],[102.31608222464413,17.226098133068525],[102.30293444339355,17.226731992338937],[102.27894010509156,17.23916677595884],[102.27689947528935,17.24945032171817],[102.24944032319556,17.277382216439403],[102.26137733959713,17.288075278912707],[102.2358358645084,17.324935983917605],[102.24048534410903,17.33942631305585],[102.24515327806762,17.34166272417388],[102.26553321203274,17.310769574432513],[102.27413405378292,17.314030085984385],[102.28971284373934,17.308075330484304],[102.29453656978978,17.331382519722194],[102.30421405484118,17.339351567659378],[102.30663604153403,17.34918009066155],[102.33362774696118,17.324251535269802],[102.34451610973304,17.28864066134052]]]}},{"type":"Feature","properties":{"tam_code":"390114","tam_th":"ป่าไม้งาม","amp_th":"เมืองหนองบัวลำภู","area_sqkm":63.02},"geometry":{"type":"Polygon","coordinates":[[[102.41822612024136,16.96314217397279],[102.40996343334919,16.927546780945278],[102.38694361642483,16.92713668716011],[102.37342896818366,16.9301597428517],[102.37488328330056,16.95230034362282],[102.35718515119898,16.94842099727171],[102.34407665193362,16.963421006217207],[102.32981096272684,16.9552798765299],[102.32147985981378,16.96364717169362],[102.32048016657724,16.976365474036278],[102.32893789084262,17.029880730734607],[102.34539773576044,17.022687972808342],[102.36442751721611,17.001854160644598],[102.39384608151103,16.98771764955288],[102.41822612024136,16.96314217397279]]]}},{"type":"Feature","properties":{"tam_code":"390115","tam_th":"หนองหว้า","amp_th":"เมืองหนองบัวลำภู","area_sqkm":51.28},"geometry":{"type":"Polygon","coordinates":[[[102.38371473485391,17.182141757838135],[102.3876035732825,17.162295312605625],[102.3648795937923,17.125727930643876],[102.3502964581927,17.115702398145654],[102.34732271457965,17.100696330505627],[102.33133478689031,17.084610374809845],[102.31922612469747,17.117800062489938],[102.32171696527828,17.162277169701127],[102.32625649803202,17.171662433444073],[102.36107094541823,17.194546180355253],[102.38371473485391,17.182141757838135]]]}},{"type":"Feature","properties":{"tam_code":"390201","tam_th":"นากลาง","amp_th":"นากลาง","area_sqkm":50.3},"geometry":{"type":"Polygon","coordinates":[[[102.23164009880928,17.34101157665343],[102.24060305974479,17.345089037862778],[102.24515327806762,17.34166272417388],[102.24048534410903,17.33942631305585],[102.2358358645084,17.324935983917605],[102.26137733959713,17.288075278912707],[102.24944032319556,17.277382216439403],[102.23210419396983,17.27252683001493],[102.22897896424448,17.279370289496804],[102.21386197400862,17.27771842425251],[102.19750108312017,17.29648770157016],[102.1878098611529,17.292601056879583],[102.18143950338101,17.296282903956392],[102.18429207342382,17.30759449667593],[102.17409594800003,17.31127266521046],[102.17312594488837,17.320391457300072],[102.15799761525999,17.332574634468912],[102.15768921220321,17.34335318368356],[102.19302751304554,17.330861912302687],[102.19404252568059,17.335912477684758],[102.20009096686194,17.337022110020516],[102.20246356973874,17.349866491639524],[102.20965083555502,17.351096303439668],[102.23164009880928,17.34101157665343]]]}},{"type":"Feature","properties":{"tam_code":"390202","tam_th":"ด่านช้าง","amp_th":"นากลาง","area_sqkm":62.91},"geometry":{"type":"Polygon","coordinates":[[[102.1271975304891,17.376892244242576],[102.13282445973975,17.36831536999346],[102.14968369122961,17.359647401862293],[102.14629578906626,17.35541588157068],[102.14248406787081,17.35688310465272],[102.14196273253994,17.348290991681335],[102.15559123839135,17.349293951307903],[102.15768921220321,17.34335318368356],[102.15799761525999,17.332574634468912],[102.17312594488837,17.320391457300072],[102.17409594800003,17.31127266521046],[102.18429207342382,17.30759449667593],[102.18143950338101,17.296282903956392],[102.1878098611529,17.292601056879583],[102.18816011107246,17.27965763315276],[102.17909748451238,17.282321358880957],[102.17488206129424,17.27754245155374],[102.13989938610008,17.275321443566877],[102.11675304403752,17.263629645156644],[102.10521829113497,17.263103056176504],[102.10588042509401,17.28623352564061],[102.12595940038446,17.303674276713824],[102.1207092938874,17.305070856697697],[102.11998051339472,17.32233621599333],[102.10657156286605,17.331828111521066],[102.11644271855712,17.337848754126703],[102.1073514623801,17.384630167825847],[102.10987456034066,17.39027525159733],[102.113510594808,17.378541689040826],[102.1271975304891,17.376892244242576]]]}},{"type":"Feature","properties":{"tam_code":"390205","tam_th":"กุดดินจี่","amp_th":"นากลาง","area_sqkm":85.51},"geometry":{"type":"Polygon","coordinates":[[[102.23651866820201,17.38312298064335],[102.28775880666431,17.38503056647799],[102.29316960505312,17.389414146414488],[102.30279706873583,17.377227858367934],[102.30820877942381,17.359494252609664],[102.30663604153403,17.34918009066155],[102.30421405484118,17.339351567659378],[102.29453656978978,17.331382519722194],[102.28971284373934,17.308075330484304],[102.27413405378292,17.314030085984385],[102.26553321203274,17.310769574432513],[102.24515327806762,17.34166272417388],[102.24060305974479,17.345089037862778],[102.23164009880928,17.34101157665343],[102.20965083555502,17.351096303439668],[102.1898297756144,17.36911350740927],[102.18425483134513,17.39216893448592],[102.16725896974752,17.40989029693313],[102.18807647702715,17.415545916274883],[102.1959599730138,17.42515020129646],[102.2249882400101,17.40456917260231],[102.23651866820201,17.38312298064335]]]}},{"type":"Feature","properties":{"tam_code":"390206","tam_th":"ฝั่งแดง","amp_th":"นากลาง","area_sqkm":109.96},"geometry":{"type":"Polygon","coordinates":[[[102.19750108312017,17.29648770157016],[102.21386197400862,17.27771842425251],[102.22897896424448,17.279370289496804],[102.23210419396983,17.27252683001493],[102.24944032319556,17.277382216439403],[102.27689947528935,17.24945032171817],[102.27894010509156,17.23916677595884],[102.26987170772237,17.222414561158892],[102.27581157665597,17.206886056629717],[102.24289228698008,17.163140863705728],[102.24033729493753,17.151438371158644],[102.23297530278917,17.161508059952872],[102.2169265456732,17.16654579236323],[102.21121166887129,17.178943750441583],[102.17212460520321,17.20980373934531],[102.17856300718648,17.221334541976212],[102.16890502952998,17.224195275766334],[102.16733998704969,17.23119849926426],[102.18216493986627,17.25455630926101],[102.18872793528963,17.255665316716286],[102.18459007270584,17.260910656123407],[102.19297212734674,17.27518121822912],[102.18816011107246,17.27965763315276],[102.1878098611529,17.292601056879583],[102.19750108312017,17.29648770157016]]]}},{"type":"Feature","properties":{"tam_code":"390207","tam_th":"เก่ากลอย","amp_th":"นากลาง","area_sqkm":77.83},"geometry":{"type":"Polygon","coordinates":[[[102.33685853369553,17.42876024133506],[102.34647859698269,17.432080702962377],[102.35303548323033,17.425965528908197],[102.36684284518343,17.424195776483874],[102.37601978393693,17.415534281932214],[102.39929284365193,17.414609314286515],[102.42166283971396,17.3750629349253],[102.38054979529282,17.38228047355957],[102.34243999783828,17.359871070816915],[102.31478847071425,17.367024052879465],[102.30279706873583,17.377227858367934],[102.29316960505312,17.389414146414488],[102.28775880666431,17.38503056647799],[102.26699660282985,17.384380919241867],[102.26627670910814,17.42199273014314],[102.27614988736912,17.417627351209273],[102.28395439961415,17.427149746420426],[102.29487871067506,17.413357882722266],[102.30971203058283,17.409609627055683],[102.31633242681303,17.419821573080206],[102.31643455940396,17.431454142171756],[102.3292428601264,17.433959571352375],[102.33685853369553,17.42876024133506]]]}},{"type":"Feature","properties":{"tam_code":"390209","tam_th":"โนนเมือง","amp_th":"นากลาง","area_sqkm":36.59},"geometry":{"type":"Polygon","coordinates":[[[102.21121166887129,17.178943750441583],[102.2169265456732,17.16654579236323],[102.23297530278917,17.161508059952872],[102.24513103788352,17.1461209747766],[102.24222886199006,17.1373207263256],[102.22996349230355,17.128345241316023],[102.22812441266962,17.14324746294095],[102.2193565060047,17.150706520235968],[102.19202023290919,17.15467606706687],[102.18082504688903,17.167780673509395],[102.16777065860329,17.164421184628292],[102.14169905651445,17.176600392998743],[102.1307131619051,17.17256073360424],[102.12395788121715,17.182415994675274],[102.14318541366497,17.194378404040503],[102.16169038582406,17.193394809345932],[102.17212460520321,17.20980373934531],[102.21121166887129,17.178943750441583]]]}},{"type":"Feature","properties":{"tam_code":"390210","tam_th":"อุทัยสวรรค์","amp_th":"นากลาง","area_sqkm":77.8},"geometry":{"type":"Polygon","coordinates":[[[102.18816011107246,17.27965763315276],[102.19297212734674,17.27518121822912],[102.18459007270584,17.260910656123407],[102.18872793528963,17.255665316716286],[102.18216493986627,17.25455630926101],[102.16733998704969,17.23119849926426],[102.16890502952998,17.224195275766334],[102.17856300718648,17.221334541976212],[102.16169038582406,17.193394809345932],[102.14318541366497,17.194378404040503],[102.12395788121715,17.182415994675274],[102.1095892394027,17.177691747853018],[102.09991259161009,17.180525577467517],[102.09488396844101,17.19446489623603],[102.10081380959276,17.213230657869655],[102.09390765709938,17.25077558571703],[102.10521829113497,17.263103056176504],[102.11675304403752,17.263629645156644],[102.13989938610008,17.275321443566877],[102.17488206129424,17.27754245155374],[102.17909748451238,17.282321358880957],[102.18816011107246,17.27965763315276]]]}},{"type":"Feature","properties":{"tam_code":"390211","tam_th":"ดงสวรรค์","amp_th":"นากลาง","area_sqkm":106.91},"geometry":{"type":"Polygon","coordinates":[[[102.13331733340857,17.49781802287861],[102.15011448939788,17.48676035246572],[102.15828167361502,17.485820335146013],[102.16119356899067,17.492805506161954],[102.17800332237614,17.492016802374632],[102.19865731971144,17.47408131054178],[102.20703119307866,17.471581086761276],[102.2090321211618,17.462747003463857],[102.22039102334351,17.465393349508112],[102.23929323806765,17.458607943460876],[102.25566569938805,17.440578463602765],[102.25630990804721,17.426477698964465],[102.26627670910814,17.42199273014314],[102.26699660282985,17.384380919241867],[102.23651866820201,17.38312298064335],[102.2249882400101,17.40456917260231],[102.1959599730138,17.42515020129646],[102.18807647702715,17.415545916274883],[102.16725896974752,17.40989029693313],[102.15091901984863,17.417765508790733],[102.13103445451262,17.44272561004185],[102.12026035885461,17.46725834289668],[102.11179690490417,17.48183271732555],[102.12856177433834,17.492206546276293],[102.1272855910542,17.498309293452845],[102.13331733340857,17.49781802287861]]]}},{"type":"Feature","properties":{"tam_code":"390213","tam_th":"กุดแห่","amp_th":"นากลาง","area_sqkm":72.46},"geometry":{"type":"Polygon","coordinates":[[[102.18425483134513,17.39216893448592],[102.1898297756144,17.36911350740927],[102.20965083555502,17.351096303439668],[102.20246356973874,17.349866491639524],[102.20009096686194,17.337022110020516],[102.19404252568059,17.335912477684758],[102.19302751304554,17.330861912302687],[102.15768921220321,17.34335318368356],[102.15559123839135,17.349293951307903],[102.14196273253994,17.348290991681335],[102.14248406787081,17.35688310465272],[102.14629578906626,17.35541588157068],[102.14968369122961,17.359647401862293],[102.13282445973975,17.36831536999346],[102.1271975304891,17.376892244242576],[102.113510594808,17.378541689040826],[102.10987456034066,17.39027525159733],[102.10725123235838,17.393271751918736],[102.11120298750507,17.393416666041166],[102.1158581920626,17.403961121278133],[102.10323151249308,17.41780993395044],[102.09674224092443,17.435907682364633],[102.10076916213953,17.444437619535314],[102.11052441914426,17.448923553605123],[102.12026035885461,17.46725834289668],[102.13103445451262,17.44272561004185],[102.15091901984863,17.417765508790733],[102.16725896974752,17.40989029693313],[102.18425483134513,17.39216893448592]]]}},{"type":"Feature","properties":{"tam_code":"390301","tam_th":"โนนสัง","amp_th":"โนนสัง","area_sqkm":35.9},"geometry":{"type":"Polygon","coordinates":[[[102.58259548265389,16.905363612248703],[102.58386075175109,16.899802415964682],[102.58832760234195,16.902616536402398],[102.59986535002122,16.899973639870748],[102.57813219216901,16.867083576938047],[102.58533469800456,16.838801103190363],[102.56248514632432,16.838662218253607],[102.55538139931507,16.841257226197975],[102.5522698281033,16.85181530366568],[102.52237542166138,16.862053774905213],[102.51816393381179,16.87163217038134],[102.52177177498248,16.88386161702881],[102.5238225965103,16.886523774530122],[102.5267050905093,16.881886979903385],[102.5318790301104,16.88289997885235],[102.57414340816018,16.906626150658326],[102.58259548265389,16.905363612248703]]]}},{"type":"Feature","properties":{"tam_code":"390302","tam_th":"บ้านถิ่น","amp_th":"โนนสัง","area_sqkm":47.64},"geometry":{"type":"Polygon","coordinates":[[[102.50368129473802,17.002009130535882],[102.52297609980957,17.01193989857631],[102.54496419598999,17.01392451595184],[102.54781880400134,17.0045957704975],[102.55605881926736,17.00259833603686],[102.57051906149469,16.98427144130705],[102.58570677762982,16.973430801697678],[102.59239374769768,16.958521381006186],[102.57164734295763,16.970741323284596],[102.55614900010168,16.971928492180584],[102.55638744043459,16.94662480391083],[102.53887972355557,16.955621710335727],[102.5349611960773,16.962797065723954],[102.51398801943776,16.958995648724763],[102.49916606838181,16.980770845348776],[102.48380227982369,16.984128946024974],[102.47905370467073,16.99196094663186],[102.47118394987298,17.028138446999172],[102.48521716331894,17.022348540535987],[102.49544563765198,17.003943522116813],[102.50368129473802,17.002009130535882]]]}},{"type":"Feature","properties":{"tam_code":"390303","tam_th":"หนองเรือ","amp_th":"โนนสัง","area_sqkm":77.69},"geometry":{"type":"Polygon","coordinates":[[[102.52237542166138,16.862053774905213],[102.5522698281033,16.85181530366568],[102.55538139931507,16.841257226197975],[102.56248514632432,16.838662218253607],[102.54240668390608,16.832757694704277],[102.53583943446846,16.825587538606918],[102.53783275317427,16.784634719116465],[102.496531165195,16.803600873033126],[102.47897170482534,16.807329791488666],[102.47121032252036,16.802499095327583],[102.46336969299456,16.807054058154254],[102.46651973060234,16.84860116806449],[102.47553806631481,16.8617017312409],[102.46895564448722,16.864720723875937],[102.47258519370517,16.86857755791248],[102.46375400091536,16.867972303217915],[102.48026590637171,16.898255786881627],[102.4979066898846,16.908020588919054],[102.52177177498248,16.88386161702881],[102.51816393381179,16.87163217038134],[102.52237542166138,16.862053774905213]]]}},{"type":"Feature","properties":{"tam_code":"390304","tam_th":"กุดดู่","amp_th":"โนนสัง","area_sqkm":73.88},"geometry":{"type":"Polygon","coordinates":[[[102.66942017245347,16.993672297582332],[102.67623928853205,16.98183033711849],[102.67953076106623,16.96800696418852],[102.67104441718352,16.94134826657839],[102.66268146518307,16.94710260001342],[102.628736837469,16.935754169326927],[102.61889906918954,16.927383714589403],[102.60979615401143,16.929138834289674],[102.60213174161528,16.925516543859466],[102.59870080778177,16.920551385655447],[102.59986535002122,16.899973639870748],[102.58832760234195,16.902616536402398],[102.58386075175109,16.899802415964682],[102.58259548265389,16.905363612248703],[102.57414340816018,16.906626150658326],[102.57375980794528,16.927121749631702],[102.56098017745636,16.934201805826113],[102.55638744043459,16.94662480391083],[102.55614900010168,16.971928492180584],[102.57164734295763,16.970741323284596],[102.59239374769768,16.958521381006186],[102.61885305940726,16.97866206518293],[102.63827068885912,17.006621010927613],[102.66942017245347,16.993672297582332]]]}},{"type":"Feature","properties":{"tam_code":"390305","tam_th":"บ้านค้อ","amp_th":"โนนสัง","area_sqkm":80.34},"geometry":{"type":"Polygon","coordinates":[[[102.67104441718352,16.94134826657839],[102.62438924708465,16.84357801456701],[102.61303840072277,16.798915523815523],[102.61498563699486,16.77707202690649],[102.61084094612455,16.771284366764828],[102.6023098805099,16.772282164718316],[102.57813219216901,16.867083576938047],[102.59986535002122,16.899973639870748],[102.59870080778177,16.920551385655447],[102.60213174161528,16.925516543859466],[102.60979615401143,16.929138834289674],[102.61889906918954,16.927383714589403],[102.628736837469,16.935754169326927],[102.66268146518307,16.94710260001342],[102.67104441718352,16.94134826657839]]]}},{"type":"Feature","properties":{"tam_code":"390306","tam_th":"โนนเมือง","amp_th":"โนนสัง","area_sqkm":57.2},"geometry":{"type":"Polygon","coordinates":[[[102.47258519370517,16.86857755791248],[102.46895564448722,16.864720723875937],[102.47553806631481,16.8617017312409],[102.46651973060234,16.84860116806449],[102.46336969299456,16.807054058154254],[102.45360987705783,16.810895283019317],[102.4535826468619,16.805803958748783],[102.44774389848135,16.802848944647327],[102.45001555802217,16.79484311025635],[102.44543734773919,16.79187922354442],[102.43299685534983,16.794725164767055],[102.42054358164582,16.795154973669863],[102.40568711579894,16.813751046856964],[102.40534374375349,16.826849470104897],[102.3906179496588,16.84722449310787],[102.41472921314275,16.876446338911578],[102.4217509231532,16.865269761568488],[102.43223849575054,16.86484046700252],[102.48026590637171,16.898255786881627],[102.46375400091536,16.867972303217915],[102.47258519370517,16.86857755791248]]]}},{"type":"Feature","properties":{"tam_code":"390307","tam_th":"โคกใหญ่","amp_th":"โนนสัง","area_sqkm":38.76},"geometry":{"type":"Polygon","coordinates":[[[102.58533469800456,16.838801103190363],[102.6023098805099,16.772282164718316],[102.53783275317427,16.784634719116465],[102.53583943446846,16.825587538606918],[102.54240668390608,16.832757694704277],[102.56248514632432,16.838662218253607],[102.58533469800456,16.838801103190363]]]}},{"type":"Feature","properties":{"tam_code":"390308","tam_th":"โคกม่วง","amp_th":"โนนสัง","area_sqkm":129.08},"geometry":{"type":"Polygon","coordinates":[[[102.4979066898846,16.908020588919054],[102.48026590637171,16.898255786881627],[102.43223849575054,16.86484046700252],[102.4217509231532,16.865269761568488],[102.41472921314275,16.876446338911578],[102.3906179496588,16.84722449310787],[102.38628473173505,16.862561011402263],[102.39088870812785,16.868014697672873],[102.37716947157875,16.87083083374182],[102.37760165893,16.87542950067388],[102.3677657932994,16.877982433001293],[102.37883534525076,16.901104279998933],[102.37455870965907,16.908445784556765],[102.38159217265834,16.91146061547426],[102.38694361642483,16.92713668716011],[102.40996343334919,16.927546780945278],[102.41822612024136,16.96314217397279],[102.44872982391274,17.015064414767693],[102.45936278475308,17.024498491633913],[102.47118394987298,17.028138446999172],[102.47905370467073,16.99196094663186],[102.4840860955341,16.929234564458813],[102.4979066898846,16.908020588919054]]]}},{"type":"Feature","properties":{"tam_code":"390309","tam_th":"นิคมพัฒนา","amp_th":"โนนสัง","area_sqkm":66.39},"geometry":{"type":"Polygon","coordinates":[[[102.49916606838181,16.980770845348776],[102.51398801943776,16.958995648724763],[102.5349611960773,16.962797065723954],[102.53887972355557,16.955621710335727],[102.55638744043459,16.94662480391083],[102.56098017745636,16.934201805826113],[102.57375980794528,16.927121749631702],[102.57414340816018,16.906626150658326],[102.5318790301104,16.88289997885235],[102.5267050905093,16.881886979903385],[102.5238225965103,16.886523774530122],[102.52177177498248,16.88386161702881],[102.4979066898846,16.908020588919054],[102.4840860955341,16.929234564458813],[102.47905370467073,16.99196094663186],[102.48380227982369,16.984128946024974],[102.49916606838181,16.980770845348776]]]}},{"type":"Feature","properties":{"tam_code":"390310","tam_th":"ปางกู่","amp_th":"โนนสัง","area_sqkm":46.29},"geometry":{"type":"Polygon","coordinates":[[[102.61885305940726,16.97866206518293],[102.59239374769768,16.958521381006186],[102.58570677762982,16.973430801697678],[102.57051906149469,16.98427144130705],[102.55605881926736,17.00259833603686],[102.54781880400134,17.0045957704975],[102.54496419598999,17.01392451595184],[102.57473501931837,17.032685945047348],[102.5805075854595,17.040515943744158],[102.60855252455303,17.0275134867562],[102.63827068885912,17.006621010927613],[102.61885305940726,16.97866206518293]]]}},{"type":"Feature","properties":{"tam_code":"390401","tam_th":"เมืองใหม่","amp_th":"ศรีบุญเรือง","area_sqkm":60.74},"geometry":{"type":"Polygon","coordinates":[[[102.32893789084262,17.029880730734607],[102.32048016657724,16.976365474036278],[102.32147985981378,16.96364717169362],[102.32956530927768,16.955510687310404],[102.29813313842037,16.951809210908472],[102.27210569311812,16.938661504687996],[102.2639365429373,17.004005910868422],[102.25270295219136,17.020388928901063],[102.26706437635575,17.021306182082693],[102.30023472974882,17.0414196194201],[102.32733189188187,17.043574800438325],[102.32893789084262,17.029880730734607]]]}},{"type":"Feature","properties":{"tam_code":"390402","tam_th":"ศรีบุญเรือง","amp_th":"ศรีบุญเรือง","area_sqkm":59.59},"geometry":{"type":"Polygon","coordinates":[[[102.2488050993284,16.949487542227068],[102.27210569311812,16.938661504687996],[102.29813313842037,16.951809210908472],[102.32981096272684,16.9552798765299],[102.31745496316431,16.907620250223136],[102.30968881251331,16.896867407200695],[102.29612856591999,16.89086553250036],[102.25464548250969,16.89476480945836],[102.25011592474387,16.891484231720362],[102.23617470725851,16.90258798413688],[102.24310732011836,16.90391466618807],[102.23909923252903,16.911808491944807],[102.22854341906657,16.91614627464304],[102.23046477020087,16.93723041076596],[102.22221330790784,16.9649291006735],[102.22376495213881,16.967695240994765],[102.23450665280025,16.964597855043632],[102.2488050993284,16.949487542227068]]]}},{"type":"Feature","properties":{"tam_code":"390403","tam_th":"หนองบัวใต้","amp_th":"ศรีบุญเรือง","area_sqkm":41.73},"geometry":{"type":"Polygon","coordinates":[[[102.35718515119898,16.94842099727171],[102.37488328330056,16.95230034362282],[102.37342896818366,16.9301597428517],[102.38694361642483,16.92713668716011],[102.38159217265834,16.91146061547426],[102.37455870965907,16.908445784556765],[102.37883534525076,16.901104279998933],[102.3677657932994,16.877982433001293],[102.37760165893,16.87542950067388],[102.37716947157875,16.87083083374182],[102.36075577303046,16.87303027327349],[102.33920871650426,16.902831650131674],[102.31745496316431,16.907620250223136],[102.32981096272684,16.9552798765299],[102.34407665193362,16.963421006217207],[102.35718515119898,16.94842099727171]]]}},{"type":"Feature","properties":{"tam_code":"390404","tam_th":"กุดสะเทียน","amp_th":"ศรีบุญเรือง","area_sqkm":60.24},"geometry":{"type":"Polygon","coordinates":[[[102.24637512032734,17.117009089576246],[102.2552326358238,17.112860835500523],[102.25600929812221,17.09922834837112],[102.26599460773464,17.08263560423101],[102.26685350956512,17.064155344488817],[102.27718684001164,17.027935065477042],[102.26706437635575,17.021306182082693],[102.25270295219136,17.020388928901063],[102.22609638273838,17.00592081884718],[102.21332341283194,17.027334722625934],[102.20440778051722,17.02548377963431],[102.19843888625097,17.03250327458614],[102.19900420436059,17.061496148652544],[102.23161120086242,17.08802121657595],[102.23246731649901,17.099587600201104],[102.24045187923649,17.114538032595007],[102.24637512032734,17.117009089576246]]]}},{"type":"Feature","properties":{"tam_code":"390405","tam_th":"นากอก","amp_th":"ศรีบุญเรือง","area_sqkm":98.48},"geometry":{"type":"Polygon","coordinates":[[[102.23046477020087,16.93723041076596],[102.22854341906657,16.91614627464304],[102.23909923252903,16.911808491944807],[102.24310732011836,16.90391466618807],[102.23617470725851,16.90258798413688],[102.25011592474387,16.891484231720362],[102.24934809610052,16.8787484471103],[102.24477975697,16.88143098724947],[102.24209736574868,16.875724049549074],[102.23419187747118,16.8801744212828],[102.23325010086099,16.875079652662937],[102.22763209565491,16.875147961742574],[102.22570120080917,16.86876533310445],[102.21331397534443,16.861383431490022],[102.2153155663464,16.85826227880913],[102.20361666789704,16.862454965513376],[102.1877309852218,16.858030706402523],[102.18031614072592,16.871789508747167],[102.17134208364475,16.865203840615447],[102.1675456994134,16.870423268155093],[102.15837560001562,16.871722725941446],[102.15575676025472,16.881248353944137],[102.14415869991488,16.880720334413812],[102.14416615815809,16.87653560603947],[102.13776721331253,16.879060118833415],[102.12390675523243,16.881047267501298],[102.10473877817631,16.897317148089826],[102.0967735290771,16.890765728190054],[102.09934734660145,16.882023181062443],[102.08124186794191,16.889385161734747],[102.0702483072699,16.885019044896616],[102.06600150705256,16.895689332289056],[102.05390496855908,16.90171422516045],[102.08230887486796,16.907573260462254],[102.10979898386474,16.919219096215866],[102.14397850909833,16.912481219114035],[102.15906620501306,16.91585873005782],[102.18568529012664,16.928954738064526],[102.22221330790784,16.9649291006735],[102.23046477020087,16.93723041076596]]]}},{"type":"Feature","properties":{"tam_code":"390406","tam_th":"โนนสะอาด","amp_th":"ศรีบุญเรือง","area_sqkm":164.17},"geometry":{"type":"Polygon","coordinates":[[[102.18845508560717,17.029446309292084],[102.19470815415698,17.00635981091694],[102.20894096919034,17.005310857669514],[102.21588361902216,16.997518647553044],[102.21371093367351,16.995380678289198],[102.22167333698657,16.991603100876137],[102.22376495213881,16.967695240994765],[102.22221330790784,16.9649291006735],[102.18568529012664,16.928954738064526],[102.15906620501306,16.91585873005782],[102.14397850909833,16.912481219114035],[102.10979898386474,16.919219096215866],[102.08230887486796,16.907573260462254],[102.05390496855908,16.90171422516045],[102.04566963297343,16.907243127102422],[102.02986112557831,16.95048121473536],[102.05851155156358,16.965204127337618],[102.06522780673114,16.960946613991275],[102.07175143157932,16.962457814920192],[102.08927431941117,16.97882943559043],[102.12544360200869,16.991320305517124],[102.13583503563723,17.011273243899733],[102.14084635454489,17.011691331552164],[102.15346076672394,17.027409331831763],[102.15619463462525,17.024796127369985],[102.17529250993486,17.032385679048502],[102.18845508560717,17.029446309292084]]]}},{"type":"Feature","properties":{"tam_code":"390407","tam_th":"ยางหล่อ","amp_th":"ศรีบุญเรือง","area_sqkm":76.32},"geometry":{"type":"Polygon","coordinates":[[[102.14353638931107,17.10104801092092],[102.15352121239422,17.10767392351642],[102.16823236553118,17.102432466683144],[102.19900420436059,17.061496148652544],[102.19843888625097,17.03250327458614],[102.20440778051722,17.02548377963431],[102.21332341283194,17.027334722625934],[102.22910542046687,17.001381842872256],[102.22167333698657,16.991603100876137],[102.21371093367351,16.995380678289198],[102.21588361902216,16.997518647553044],[102.20894096919034,17.005310857669514],[102.19470815415698,17.00635981091694],[102.18845508560717,17.029446309292084],[102.17529250993486,17.032385679048502],[102.15619463462525,17.024796127369985],[102.15346076672394,17.027409331831763],[102.1252633763192,17.040964295338622],[102.1171586675603,17.0579245539852],[102.10583500886375,17.102435782675236],[102.1106831867608,17.11360732255474],[102.12046722312832,17.118689674106356],[102.14353638931107,17.10104801092092]]]}},{"type":"Feature","properties":{"tam_code":"390408","tam_th":"โนนม่วง","amp_th":"ศรีบุญเรือง","area_sqkm":108.08},"geometry":{"type":"Polygon","coordinates":[[[102.1307131619051,17.17256073360424],[102.14169905651445,17.176600392998743],[102.16777065860329,17.164421184628292],[102.18082504688903,17.167780673509395],[102.19202023290919,17.15467606706687],[102.2193565060047,17.150706520235968],[102.22812441266962,17.14324746294095],[102.22996349230355,17.128345241316023],[102.24222886199006,17.1373207263256],[102.24932015089517,17.13554576404955],[102.25567665626188,17.13959826203462],[102.27457581096586,17.13476114294748],[102.2552326358238,17.112860835500523],[102.24637512032734,17.117009089576246],[102.24045187923649,17.114538032595007],[102.23246731649901,17.099587600201104],[102.23161120086242,17.08802121657595],[102.19900420436059,17.061496148652544],[102.16823236553118,17.102432466683144],[102.15352121239422,17.10767392351642],[102.14353638931107,17.10104801092092],[102.12046722312832,17.118689674106356],[102.12897397243377,17.149227185722594],[102.10613577370097,17.15876731245429],[102.09293164492597,17.174756389968923],[102.09991259161009,17.180525577467517],[102.1095892394027,17.177691747853018],[102.12395788121715,17.182415994675274],[102.1307131619051,17.17256073360424]]]}},{"type":"Feature","properties":{"tam_code":"390409","tam_th":"หนองกุงแก้ว","amp_th":"ศรีบุญเรือง","area_sqkm":81.62},"geometry":{"type":"Polygon","coordinates":[[[102.0635239078697,17.202289034735223],[102.08189059527129,17.170246376097403],[102.09293164492597,17.174756389968923],[102.10613577370097,17.15876731245429],[102.12897397243377,17.149227185722594],[102.12046722312832,17.118689674106356],[102.1106831867608,17.11360732255474],[102.10583500886375,17.102435782675236],[102.1171586675603,17.0579245539852],[102.10797062893235,17.0614150726919],[102.10185256494972,17.069720127275843],[102.10562405067051,17.082671257451068],[102.09996443517677,17.086985513123786],[102.09913067850869,17.101841094746902],[102.09202578476177,17.10317650185858],[102.09144705001046,17.110803162183203],[102.07252751783244,17.112359886902816],[102.06539100376328,17.120653794657823],[102.0481754626455,17.123804370999483],[102.03787433061802,17.130962435292837],[102.02302350438767,17.131250554932702],[102.01639306324215,17.13985157911581],[102.02056924850754,17.15404710263679],[102.03834430908047,17.157897540084015],[102.04491319107757,17.165019352431074],[102.03230577103137,17.173472919919192],[102.03000525568318,17.19209802098453],[102.017407383905,17.202051920776587],[102.02779426590412,17.204654362437637],[102.03765731195514,17.220819799531398],[102.04074525089969,17.21101977787814],[102.0635239078697,17.202289034735223]]]}},{"type":"Feature","properties":{"tam_code":"390410","tam_th":"หนองแก","amp_th":"ศรีบุญเรือง","area_sqkm":62.98},"geometry":{"type":"Polygon","coordinates":[[[102.31922612469747,17.117800062489938],[102.33133478689031,17.084610374809845],[102.33024586390592,17.07033661627407],[102.32263263435327,17.053928857969268],[102.32733189188187,17.043574800438325],[102.30023472974882,17.0414196194201],[102.27718684001164,17.027935065477042],[102.26685350956512,17.064155344488817],[102.26599460773464,17.08263560423101],[102.25600929812221,17.09922834837112],[102.2552326358238,17.112860835500523],[102.27457581096586,17.13476114294748],[102.28213828288418,17.127240713863063],[102.31922612469747,17.117800062489938]]]}},{"type":"Feature","properties":{"tam_code":"390411","tam_th":"ทรายทอง","amp_th":"ศรีบุญเรือง","area_sqkm":60.63},"geometry":{"type":"Polygon","coordinates":[[[102.36075577303046,16.87303027327349],[102.39088870812785,16.868014697672873],[102.38628473173505,16.862561011402263],[102.3906179496588,16.84722449310787],[102.40534374375349,16.826849470104897],[102.40568711579894,16.813751046856964],[102.39160642938086,16.81043886212991],[102.3780873898228,16.817349144314164],[102.37759953590871,16.810545486850078],[102.3612652877558,16.81646181962972],[102.35063206114566,16.83031563965073],[102.34653514385492,16.81719204855093],[102.33832994843615,16.823890371348487],[102.33595993180715,16.831218107285068],[102.33966727161662,16.83711215825257],[102.32330450677273,16.84651201556626],[102.33169674593577,16.848569389419197],[102.33028510128825,16.855209053867604],[102.31604889226573,16.855032500402405],[102.3246019457773,16.867431282019034],[102.31109670508064,16.86800093883702],[102.30193423450305,16.877497546236185],[102.30717893919036,16.88416967123083],[102.29065389872774,16.885050989409475],[102.29612856591999,16.89086553250036],[102.30968881251331,16.896867407200695],[102.31745496316431,16.907620250223136],[102.33920871650426,16.902831650131674],[102.36075577303046,16.87303027327349]]]}},{"type":"Feature","properties":{"tam_code":"390412","tam_th":"หันนางาม","amp_th":"ศรีบุญเรือง","area_sqkm":29.93},"geometry":{"type":"Polygon","coordinates":[[[102.2639365429373,17.004005910868422],[102.27210569311812,16.938661504687996],[102.2488050993284,16.949487542227068],[102.23450665280025,16.964597855043632],[102.22376495213881,16.967695240994765],[102.22167333698657,16.991603100876137],[102.22910542046687,17.001381842872256],[102.22609638273838,17.00592081884718],[102.25270295219136,17.020388928901063],[102.2639365429373,17.004005910868422]]]}},{"type":"Feature","properties":{"tam_code":"390501","tam_th":"นาสี","amp_th":"สุวรรณคูหา","area_sqkm":59.82},"geometry":{"type":"Polygon","coordinates":[[[102.31819203253731,17.678789638804727],[102.32672946680346,17.592214552288915],[102.33364904156169,17.578696939559435],[102.32545397810718,17.58069901709955],[102.31901616477083,17.588943600764907],[102.31127515288092,17.58336420770515],[102.30739100847522,17.587911014011087],[102.29860771949409,17.58458375099217],[102.28683156109909,17.590670048862236],[102.26477279256355,17.56463996487668],[102.25835538156664,17.563795726750268],[102.25664585979834,17.56742680917388],[102.24635798830975,17.561304104584885],[102.24991608786583,17.585671845112525],[102.26357194101035,17.59937306041509],[102.2686953876835,17.61067801627071],[102.28094915283077,17.61843288687012],[102.26894044667571,17.664847833043783],[102.27536780733348,17.667597936083013],[102.29657851458546,17.662207879699192],[102.2868024925343,17.673720309861856],[102.31819203253731,17.678789638804727]]]}},{"type":"Feature","properties":{"tam_code":"390502","tam_th":"บ้านโคก","amp_th":"สุวรรณคูหา","area_sqkm":97.6},"geometry":{"type":"Polygon","coordinates":[[[102.26357194101035,17.59937306041509],[102.24991608786583,17.585671845112525],[102.24635798830975,17.561304104584885],[102.25664585979834,17.56742680917388],[102.25835538156664,17.563795726750268],[102.26477279256355,17.56463996487668],[102.25751994727646,17.53893094580831],[102.25027547838003,17.534990068204003],[102.24323519580342,17.522906412921113],[102.23773984788538,17.504278350295014],[102.22638361234146,17.504693617889952],[102.22107656016777,17.497005080628725],[102.20550340876143,17.494696891285567],[102.20703119307866,17.471581086761276],[102.19865731971144,17.47408131054178],[102.17800332237614,17.492016802374632],[102.16119356899067,17.492805506161954],[102.15828167361502,17.485820335146013],[102.15011448939788,17.48676035246572],[102.13331733340857,17.49781802287861],[102.15255688142398,17.50818979626541],[102.14730163097936,17.516585689660012],[102.1535604536338,17.516685952802842],[102.15480037373678,17.524216859998536],[102.16333452495535,17.529253694528897],[102.1671711368486,17.52639830955561],[102.16796333188314,17.536790083065757],[102.18096769479581,17.5577197514458],[102.18362750211148,17.576374203132403],[102.21051863615365,17.583908085364843],[102.24067561027074,17.60448277534433],[102.26357194101035,17.59937306041509]]]}},{"type":"Feature","properties":{"tam_code":"390503","tam_th":"นาดี","amp_th":"สุวรรณคูหา","area_sqkm":95.41},"geometry":{"type":"Polygon","coordinates":[[[102.2945775796689,17.513383494037672],[102.3068565453283,17.512764935129187],[102.30680568596127,17.487094939112023],[102.31532113183951,17.461747053214737],[102.31126763091994,17.446633967924853],[102.31643455940396,17.431454142171756],[102.31633242681303,17.419821573080206],[102.30971203058283,17.409609627055683],[102.29487871067506,17.413357882722266],[102.28395439961415,17.427149746420426],[102.27614988736912,17.417627351209273],[102.25630990804721,17.426477698964465],[102.25566569938805,17.440578463602765],[102.23929323806765,17.458607943460876],[102.22039102334351,17.465393349508112],[102.2090321211618,17.462747003463857],[102.20703119307866,17.471581086761276],[102.20550340876143,17.494696891285567],[102.22107656016777,17.497005080628725],[102.22638361234146,17.504693617889952],[102.23773984788538,17.504278350295014],[102.24323519580342,17.522906412921113],[102.28648798209244,17.526995999901754],[102.2945775796689,17.513383494037672]]]}},{"type":"Feature","properties":{"tam_code":"390504","tam_th":"นาด่าน","amp_th":"สุวรรณคูหา","area_sqkm":75.86},"geometry":{"type":"Polygon","coordinates":[[[102.36874272150509,17.499731546696957],[102.3851099940561,17.45151284455345],[102.39929284365193,17.414609314286515],[102.37601978393693,17.415534281932214],[102.36684284518343,17.424195776483874],[102.35303548323033,17.425965528908197],[102.34647859698269,17.432080702962377],[102.33685853369553,17.42876024133506],[102.3292428601264,17.433959571352375],[102.31643455940396,17.431454142171756],[102.31126763091994,17.446633967924853],[102.31532113183951,17.461747053214737],[102.30680568596127,17.487094939112023],[102.3068565453283,17.512764935129187],[102.3090060081408,17.526465423974283],[102.33686398607976,17.516140087639624],[102.3483949440966,17.5290530541801],[102.36874272150509,17.499731546696957]]]}},{"type":"Feature","properties":{"tam_code":"390505","tam_th":"ดงมะไฟ","amp_th":"สุวรรณคูหา","area_sqkm":105.28},"geometry":{"type":"Polygon","coordinates":[[[102.21743390272938,17.66060998713054],[102.24613341371776,17.66588893036928],[102.26276655752045,17.65999113653962],[102.26894044667571,17.664847833043783],[102.28094915283077,17.61843288687012],[102.2686953876835,17.61067801627071],[102.26357194101035,17.59937306041509],[102.24067561027074,17.60448277534433],[102.21051863615365,17.583908085364843],[102.18362750211148,17.576374203132403],[102.18240147865832,17.583256038388274],[102.16068290057116,17.60857877788253],[102.14374473071372,17.620723237191758],[102.13721898023897,17.635872111242865],[102.13788223464837,17.648678851608306],[102.1452226658747,17.66168026617906],[102.16022721945211,17.666240362829445],[102.17227066920621,17.662007830505416],[102.18418179993216,17.66784696980661],[102.21743390272938,17.66060998713054]]]}},{"type":"Feature","properties":{"tam_code":"390506","tam_th":"สุวรรณคูหา","amp_th":"สุวรรณคูหา","area_sqkm":22.46},"geometry":{"type":"Polygon","coordinates":[[[102.28683156109909,17.590670048862236],[102.2972001801924,17.571130331115388],[102.29700957849789,17.54850232025825],[102.28648798209244,17.526995999901754],[102.24323519580342,17.522906412921113],[102.25027547838003,17.534990068204003],[102.25751994727646,17.53893094580831],[102.26477279256355,17.56463996487668],[102.28683156109909,17.590670048862236]]]}},{"type":"Feature","properties":{"tam_code":"390507","tam_th":"บุญทัน","amp_th":"สุวรรณคูหา","area_sqkm":73.89},"geometry":{"type":"Polygon","coordinates":[[[102.13788223464837,17.648678851608306],[102.13721898023897,17.635872111242865],[102.14374473071372,17.620723237191758],[102.16068290057116,17.60857877788253],[102.18240147865832,17.583256038388274],[102.18362750211148,17.576374203132403],[102.18096769479581,17.5577197514458],[102.16796333188314,17.536790083065757],[102.1671711368486,17.52639830955561],[102.16333452495535,17.529253694528897],[102.15480037373678,17.524216859998536],[102.1535604536338,17.516685952802842],[102.14730163097936,17.516585689660012],[102.15255688142398,17.50818979626541],[102.13331733340857,17.49781802287861],[102.1272855910542,17.498309293452845],[102.1259960610594,17.50933704170768],[102.13478295543788,17.50948157630006],[102.13927232464567,17.522753829170934],[102.1399963788887,17.530342734315575],[102.13346036299399,17.542099071334487],[102.134922947716,17.55234068324086],[102.13436638913804,17.559507525774887],[102.11601541513907,17.576633678013188],[102.11493560317462,17.590002069293437],[102.1058485190171,17.608349238824328],[102.09575479914118,17.615669456164582],[102.08281826257803,17.635008580911467],[102.1042253137834,17.646978955853626],[102.10949343268706,17.638874421107868],[102.1210372519572,17.633071976660336],[102.12916781237368,17.636159247470218],[102.13177803997773,17.64730786217041],[102.13788223464837,17.648678851608306]]]}},{"type":"Feature","properties":{"tam_code":"390508","tam_th":"กุดผึ้ง","amp_th":"สุวรรณคูหา","area_sqkm":34.32},"geometry":{"type":"Polygon","coordinates":[[[102.29860771949409,17.58458375099217],[102.30739100847522,17.587911014011087],[102.31127515288092,17.58336420770515],[102.31901616477083,17.588943600764907],[102.32545397810718,17.58069901709955],[102.33364904156169,17.578696939559435],[102.33229730812957,17.5545818029531],[102.3483949440966,17.5290530541801],[102.33686398607976,17.516140087639624],[102.3090060081408,17.526465423974283],[102.3068565453283,17.512764935129187],[102.2945775796689,17.513383494037672],[102.28648798209244,17.526995999901754],[102.29700957849789,17.54850232025825],[102.2972001801924,17.571130331115388],[102.28683156109909,17.590670048862236],[102.29860771949409,17.58458375099217]]]}},{"type":"Feature","properties":{"tam_code":"390601","tam_th":"นาเหล่า","amp_th":"นาวัง","area_sqkm":46.51},"geometry":{"type":"Polygon","coordinates":[[[102.08991603919867,17.331135807154286],[102.0884334324237,17.31369323568962],[102.09917587863319,17.302437071677982],[102.08788297496358,17.262581578903855],[102.08889638816768,17.24846580514682],[102.09390765709938,17.25077558571703],[102.10081380959276,17.213230657869655],[102.09488396844101,17.19446489623603],[102.08552457771145,17.210903790495223],[102.08176917811242,17.231286784729708],[102.0844377878762,17.236614438409052],[102.06953489428999,17.257050791438076],[102.05273080063486,17.251578218638365],[102.04281979486728,17.26108239737338],[102.04536675934382,17.276223366216584],[102.05744130599207,17.297549361733072],[102.05505525216937,17.320010669122613],[102.06530362517643,17.331602437086158],[102.06009109464121,17.339639815418785],[102.08991603919867,17.331135807154286]]]}},{"type":"Feature","properties":{"tam_code":"390602","tam_th":"นาแก","amp_th":"นาวัง","area_sqkm":88.22},"geometry":{"type":"Polygon","coordinates":[[[102.11179690490417,17.48183271732555],[102.12026035885461,17.46725834289668],[102.11052441914426,17.448923553605123],[102.10076916213953,17.444437619535314],[102.09674224092443,17.435907682364633],[102.10323151249308,17.41780993395044],[102.1158581920626,17.403961121278133],[102.11120298750507,17.393416666041166],[102.10725123235838,17.393271751918736],[102.10987456034066,17.39027525159733],[102.1073514623801,17.384630167825847],[102.11522616693728,17.3481903360986],[102.10215052632194,17.347194046197654],[102.08991603919867,17.331135807154286],[102.06009109464121,17.339639815418785],[102.04879665291045,17.346924655190957],[102.0500755004731,17.368242123765977],[102.01792789482705,17.37395824523236],[102.00724070017628,17.38544743993096],[102.03769117299609,17.390010678095607],[102.0471194299529,17.396509719521827],[102.06294833476906,17.427464194851172],[102.06245788368352,17.443680191376604],[102.08277833524464,17.461674758217587],[102.0916945355594,17.464270717677515],[102.09621685861282,17.472227570313944],[102.11179690490417,17.48183271732555]]]}},{"type":"Feature","properties":{"tam_code":"390603","tam_th":"วังทอง","amp_th":"นาวัง","area_sqkm":54.91},"geometry":{"type":"Polygon","coordinates":[[[102.0500755004731,17.368242123765977],[102.04879665291045,17.346924655190957],[102.06009109464121,17.339639815418785],[102.06530362517643,17.331602437086158],[102.05505525216937,17.320010669122613],[102.05744130599207,17.297549361733072],[102.04536675934382,17.276223366216584],[102.04281979486728,17.26108239737338],[102.02989380850902,17.270673521016192],[102.02678486601654,17.281157810092907],[102.01475243988273,17.279532096305736],[102.01673262760642,17.286786422682788],[102.00270667061649,17.29575960712961],[101.98607266352916,17.32334379228032],[101.9922636264762,17.33499252126414],[102.00970763683144,17.333590929794493],[102.02061619262022,17.34124665547687],[102.01337325713914,17.36220482001543],[102.01840994270026,17.36683395220422],[102.01792789482705,17.37395824523236],[102.0500755004731,17.368242123765977]]]}},{"type":"Feature","properties":{"tam_code":"390604","tam_th":"วังปลาป้อม","amp_th":"นาวัง","area_sqkm":54.21},"geometry":{"type":"Polygon","coordinates":[[[102.08277833524464,17.461674758217587],[102.06245788368352,17.443680191376604],[102.06294833476906,17.427464194851172],[102.0471194299529,17.396509719521827],[102.03769117299609,17.390010678095607],[102.00724070017628,17.38544743993096],[101.98922023424493,17.40364201178803],[101.98487247867274,17.41486031740628],[101.99310427858046,17.41951204492978],[101.9845692522904,17.442656309403375],[101.99193050129867,17.459546223433122],[101.99889209159659,17.45639631731836],[102.03244407669774,17.45888496483352],[102.05213432766453,17.44951668913933],[102.08277833524464,17.461674758217587]]]}},{"type":"Feature","properties":{"tam_code":"390605","tam_th":"เทพคีรี","amp_th":"นาวัง","area_sqkm":21.87},"geometry":{"type":"Polygon","coordinates":[[[102.11522616693728,17.3481903360986],[102.11644271855712,17.337848754126703],[102.10657156286605,17.331828111521066],[102.11998051339472,17.32233621599333],[102.1207092938874,17.305070856697697],[102.12595940038446,17.303674276713824],[102.10588042509401,17.28623352564061],[102.10521829113497,17.263103056176504],[102.09390765709938,17.25077558571703],[102.08889638816768,17.24846580514682],[102.08788297496358,17.262581578903855],[102.09917587863319,17.302437071677982],[102.0884334324237,17.31369323568962],[102.08991603919867,17.331135807154286],[102.10215052632194,17.347194046197654],[102.11522616693728,17.3481903360986]]]}}]}