{"type":"FeatureCollection","features":[{"type":"Feature","properties":{"feature_group":"dam","name":"ฝายน้ำล้นบ้านหนอ","DAM_Type":"ฝายฯ"},"geometry":{"type":"Point","coordinates":[102.36736,17.19389]}},{"type":"Feature","properties":{"feature_group":"dam","name":"ฝายน้ำล้นบ้านนาแ","DAM_Type":"ฝายฯ"},"geometry":{"type":"Point","coordinates":[102.06222,17.35852]}},{"type":"Feature","properties":{"feature_group":"dam","name":"ฝายน้ำล้นวัดภูน้","DAM_Type":"ฝายฯ"},"geometry":{"type":"Point","coordinates":[102.18822,17.29713]}},{"type":"Feature","properties":{"feature_group":"dam","name":"ฝายน้ำล้นห้วยน้ำ","DAM_Type":"ฝายฯ"},"geometry":{"type":"Point","coordinates":[102.29436,17.38948]}},{"type":"Feature","properties":{"feature_group":"dam","name":"ปรับปรุงซ่อมแซมฝ","DAM_Type":"ฝายน้ำล้น/ประตูระ"},"geometry":{"type":"Point","coordinates":[102.4454,17.1716]}},{"type":"Feature","properties":{"feature_group":"water_level_station","station_order":1,"station_name":"วังปลาป้อม","river_basin":"ลำน้ำพะเนียง","village":"บ้านโคกเจริญ","tambon":"วังปลาป้อม","amphoe":"นาวัง","lat":17.42065,"lon":101.99304,"elevation_m_msl":290.0,"alert_red_m_msl":290.0,"alert_yellow_m_msl":289.5},"geometry":{"type":"Point","coordinates":[101.99304,17.42065]}},{"type":"Feature","properties":{"feature_group":"water_level_station","station_order":2,"station_name":"โคกกระทอ","river_basin":"ลำน้ำพะเนียง","village":"บ้านโคกกระทอ","tambon":"นาเหล่า","amphoe":"นาวัง","lat":17.34314,"lon":102.07167,"elevation_m_msl":266.0,"alert_red_m_msl":266.0,"alert_yellow_m_msl":265.5},"geometry":{"type":"Point","coordinates":[102.07167,17.34314]}},{"type":"Feature","properties":{"feature_group":"water_level_station","station_order":3,"station_name":"วังสามหาบ","river_basin":"ลำน้ำพะเนียง","village":"บ้านวังสามหาบ","tambon":"เทพคีรี","amphoe":"นาวัง","lat":17.3099,"lon":102.10789,"elevation_m_msl":258.0,"alert_red_m_msl":258.0,"alert_yellow_m_msl":257.5},"geometry":{"type":"Point","coordinates":[102.10789,17.3099]}},{"type":"Feature","properties":{"feature_group":"water_level_station","station_order":4,"station_name":"บ้านหนองด่าน","river_basin":"ลำน้ำพะเนียง","village":"บ้านหนองด่าน","tambon":"ด่านช้าง","amphoe":"นากลาง","lat":17.27936,"lon":102.16552,"elevation_m_msl":249.0,"alert_red_m_msl":249.0,"alert_yellow_m_msl":248.5},"geometry":{"type":"Point","coordinates":[102.16552,17.27936]}},{"type":"Feature","properties":{"feature_group":"water_level_station","station_order":5,"station_name":"บ้านฝั่งแดง","river_basin":"ลำน้ำพะเนียง","village":"บ้านฝั่งแดง","tambon":"ฝั่งแดง","amphoe":"นากลาง","lat":17.2673,"lon":102.22728,"elevation_m_msl":237.0,"alert_red_m_msl":237.0,"alert_yellow_m_msl":236.5},"geometry":{"type":"Point","coordinates":[102.22728,17.2673]}},{"type":"Feature","properties":{"feature_group":"water_level_station","station_order":6,"station_name":"ประตูระบายน้ำหนองหว้าใหญ่","river_basin":"ลำน้ำพะเนียง","village":"บ้านหนองหว้าใหญ่","tambon":"หนองหว้า","amphoe":"เมืองฯ","lat":17.17981,"lon":102.38617,"elevation_m_msl":216.0,"alert_red_m_msl":216.0,"alert_yellow_m_msl":215.5},"geometry":{"type":"Point","coordinates":[102.38617,17.17981]}},{"type":"Feature","properties":{"feature_group":"water_level_station","station_order":7,"station_name":"วังหมื่น","river_basin":"ลำน้ำพะเนียง","village":"บ้านวังหมื่น","tambon":"หนองบัว","amphoe":"เมืองฯ","lat":17.18317,"lon":102.43244,"elevation_m_msl":210.0,"alert_red_m_msl":210.0,"alert_yellow_m_msl":209.5},"geometry":{"type":"Point","coordinates":[102.43244,17.18317]}},{"type":"Feature","properties":{"feature_group":"water_level_station","station_order":8,"station_name":"ประตูระบายน้ำปู่หลอด","river_basin":"ลำน้ำพะเนียง","village":"บ้านโนนคูณ","tambon":"บ้านขาม","amphoe":"เมืองฯ","lat":17.11487,"lon":102.45435,"elevation_m_msl":203.0,"alert_red_m_msl":203.0,"alert_yellow_m_msl":202.5},"geometry":{"type":"Point","coordinates":[102.45435,17.11487]}},{"type":"Feature","properties":{"feature_group":"water_level_station","station_order":9,"station_name":"บ้านข้องโป้","river_basin":"ลำน้ำพะเนียง","village":"บ้านข้องโป้","tambon":"บ้านขาม","amphoe":"เมืองฯ","lat":17.08217,"lon":102.45068,"elevation_m_msl":201.0,"alert_red_m_msl":201.0,"alert_yellow_m_msl":200.5},"geometry":{"type":"Point","coordinates":[102.45068,17.08217]}},{"type":"Feature","properties":{"feature_group":"water_level_station","station_order":10,"station_name":"ประตูระบายน้ำหัวนา","river_basin":"ลำน้ำพะเนียง","village":"บ้านดอนหัน","tambon":"หัวนา","amphoe":"เมืองฯ","lat":17.00067,"lon":102.424,"elevation_m_msl":191.0,"alert_red_m_msl":191.0,"alert_yellow_m_msl":190.5},"geometry":{"type":"Point","coordinates":[102.424,17.00067]}},{"type":"Feature","properties":{"feature_group":"water_level_station","station_order":1,"station_name":"คลองบุญทัน","river_basin":"ลำน้ำโมง","village":"บ้านบุญทัน","tambon":"บุญทัน","amphoe":"สุวรรณคูหา","lat":17.54512,"lon":102.16832,"elevation_m_msl":231.0,"alert_red_m_msl":231.0,"alert_yellow_m_msl":230.5},"geometry":{"type":"Point","coordinates":[102.16832,17.54512]}},{"type":"Feature","properties":{"feature_group":"water_level_station","station_order":2,"station_name":"บ้านโคก","river_basin":"ลำน้ำโมง","village":"บ้านโคก","tambon":"บ้านโคก","amphoe":"สุวรรณคูหา","lat":17.54952,"lon":102.20425,"elevation_m_msl":218.0,"alert_red_m_msl":218.0,"alert_yellow_m_msl":217.5},"geometry":{"type":"Point","coordinates":[102.20425,17.54952]}},{"type":"Feature","properties":{"feature_group":"water_level_station","station_order":3,"station_name":"บ้านนาตาแหลว","river_basin":"ลำน้ำโมง","village":"บ้านโคก","tambon":"นาสี","amphoe":"สุวรรณคูหา","lat":17.57567,"lon":102.27326,"elevation_m_msl":202.0,"alert_red_m_msl":202.0,"alert_yellow_m_msl":201.5},"geometry":{"type":"Point","coordinates":[102.27326,17.57567]}},{"type":"Feature","properties":{"feature_group":"water_level_station","station_order":4,"station_name":"บ้านกุดผึ้ง","river_basin":"ลำน้ำโมง","village":"บ้านกุดผึ้ง","tambon":"กุดผึ้ง","amphoe":"สุวรรณคูหา","lat":17.56062,"lon":102.31572,"elevation_m_msl":192.0,"alert_red_m_msl":192.0,"alert_yellow_m_msl":191.5},"geometry":{"type":"Point","coordinates":[102.31572,17.56062]}},{"type":"Feature","properties":{"feature_group":"water_level_station","station_order":1,"station_name":"อ่ายเก็บน้ำมอ","river_basin":"ลำน้ำมอ","village":"บ้านฝายหิน","tambon":"โนนม่วง","amphoe":"ศรีบุญเรือง","lat":17.16608,"lon":102.18177,"elevation_m_msl":242.0,"alert_red_m_msl":242.0,"alert_yellow_m_msl":241.5},"geometry":{"type":"Point","coordinates":[102.18177,17.16608]}},{"type":"Feature","properties":{"feature_group":"water_level_station","station_order":2,"station_name":"บ้างวังคูณ","river_basin":"ลำน้ำมอ","village":"บ้านวังคูณ","tambon":"กุดสะเทียน","amphoe":"ศรีบุญเรือง","lat":17.03214,"lon":102.2492,"elevation_m_msl":211.0,"alert_red_m_msl":211.0,"alert_yellow_m_msl":210.5},"geometry":{"type":"Point","coordinates":[102.2492,17.03214]}},{"type":"Feature","properties":{"feature_group":"water_level_station","station_order":3,"station_name":"บ้านโนนสูงเปลือย","river_basin":"ลำน้ำมอ","village":"บ้านโนนสูงเปลือย","tambon":"เมืองใหม่","amphoe":"ศรีบุญเรือง","lat":16.96934,"lon":102.27002,"elevation_m_msl":202.0,"alert_red_m_msl":202.0,"alert_yellow_m_msl":201.5},"geometry":{"type":"Point","coordinates":[102.27002,16.96934]}},{"type":"Feature","properties":{"feature_group":"water_level_station","station_order":1,"station_name":"บ้านวังโปร่ง","river_basin":"ลำน้ำพวย","village":"บ้านวังโปร่ง","tambon":"โนนสะอาด","amphoe":"ศรีบุญเรือง","lat":17.01415,"lon":102.19359,"elevation_m_msl":212.0,"alert_red_m_msl":212.0,"alert_yellow_m_msl":211.5},"geometry":{"type":"Point","coordinates":[102.19359,17.01415]}},{"type":"Feature","properties":{"feature_group":"water_level_station","station_order":2,"station_name":"บ้านทุ่งโพธิ์","river_basin":"ลำน้ำพวย","village":"บ้านทุ่งโพธิ์","tambon":"โนนสะอาด","amphoe":"ศรีบุญเรือง","lat":16.97482,"lon":102.22344,"elevation_m_msl":197.0,"alert_red_m_msl":197.0,"alert_yellow_m_msl":196.5},"geometry":{"type":"Point","coordinates":[102.22344,16.97482]}},{"type":"Feature","properties":{"feature_group":"water_level_station","station_order":3,"station_name":"บ้านโคกล่าม","river_basin":"ลำน้ำพวย","village":"บ้านโคกล่าม","tambon":"นากอก","amphoe":"ศรีบุญเรือง","lat":16.91317,"lon":102.23807,"elevation_m_msl":193.0,"alert_red_m_msl":193.0,"alert_yellow_m_msl":192.5},"geometry":{"type":"Point","coordinates":[102.23807,16.91317]}},{"type":"Feature","properties":{"feature_group":"reservoir_project_highlight","reservoir_order":1,"project_name":"อ่างเก็บน้ำห้วยยางเงาะ","village":"ถ้ำกลองเพล","tambon":"โนนทัน","amphoe":"เมือง","lat":17.22588,"lon":102.518152,"project_type":"เล็ก พระราชดำริ","completed_year":2525},"geometry":{"type":"Point","coordinates":[102.51815,17.22588]}},{"type":"Feature","properties":{"feature_group":"reservoir_project_highlight","reservoir_order":2,"project_name":"อ่างเก็บน้ำห้วยซับม่วง","village":"หนองกุงแก้ว","tambon":"หนองกุงแก้ว","amphoe":"ศรีบุญเรือง","lat":17.14711,"lon":102.090722,"project_type":"เล็ก เงินกู้KEW","capacity_mcm":0.75},"geometry":{"type":"Point","coordinates":[102.09072,17.14711]}},{"type":"Feature","properties":{"feature_group":"reservoir_project_highlight","reservoir_order":3,"project_name":"อ่างเก็บน้ำห้วยเหล่ายาง","village":"ภูพานทอง","tambon":"หนองบัว","amphoe":"เมือง","lat":17.2376,"lon":102.4625,"project_type":"กลาง พระราชดำริ","capacity_mcm":2.469,"completed_year":2534},"geometry":{"type":"Point","coordinates":[102.4625,17.2376]}},{"type":"Feature","properties":{"feature_group":"reservoir_project_highlight","reservoir_order":4,"project_name":"อ่างเก็บน้ำบอง","village":"ตาดไฮ","tambon":"โคกม่วง","amphoe":"โนนสัง","lat":16.907122,"lon":102.417037,"project_type":"กลาง พระราชดำริ","completed_year":2560},"geometry":{"type":"Point","coordinates":[102.41704,16.90712]}},{"type":"Feature","properties":{"feature_group":"reservoir_project_highlight","reservoir_order":5,"project_name":"อ่างเก็บน้ำห้วยสนามชัย","village":"สนามชัย","tambon":"กุดแห่","amphoe":"นากลาง","lat":17.4341,"lon":102.13761,"project_type":"เล็ก พระราชดำริ","completed_year":2527},"geometry":{"type":"Point","coordinates":[102.13761,17.4341]}},{"type":"Feature","properties":{"feature_group":"reservoir_project_highlight","reservoir_order":6,"project_name":"อ่างเก็บน้ำผาวัง","village":"โคกนาเหล่า","tambon":"นาเหล่า","amphoe":"นาวัง","lat":17.3087,"lon":102.0433,"project_type":"เล็ก เงินกู้KEW","capacity_mcm":2.122},"geometry":{"type":"Point","coordinates":[102.0433,17.3087]}},{"type":"Feature","properties":{"feature_group":"reservoir_project_highlight","reservoir_order":7,"project_name":"อ่างเก็บน้ำห้วยลาดกั่ว","village":"นาแก","tambon":"นาแก","amphoe":"นาวัง","lat":17.4061,"lon":102.07699,"project_type":"เล็ก เงินกู้KEW","capacity_mcm":0.842},"geometry":{"type":"Point","coordinates":[102.07699,17.4061]}},{"type":"Feature","properties":{"feature_group":"reservoir_project_highlight","reservoir_order":8,"project_name":"อ่างเก็บน้ำห้วยโซ่","village":"โคกนกพัฒนา","tambon":"บุญทัน","amphoe":"สุวรรณคูหา","lat":17.6032,"lon":102.11548,"project_type":"เล็ก พระราชดำริ"},"geometry":{"type":"Point","coordinates":[102.11548,17.6032]}},{"type":"Feature","properties":{"feature_group":"reservoir_project_highlight","reservoir_order":9,"project_name":"อ่างเก็บน้ำห้วยไร่ 1","village":"โนนธาตุพัฒนา","tambon":"ดงสวรรค์","amphoe":"นากลาง","lat":17.4827,"lon":102.17845,"project_type":"โครงการ คจก."},"geometry":{"type":"Point","coordinates":[102.17845,17.4827]}},{"type":"Feature","properties":{"feature_group":"reservoir_project_highlight","reservoir_order":10,"project_name":"อ่างเก็บน้ำห้วยไร่ 2","village":"สระแก้ว","tambon":"ดงสวรรค์","amphoe":"นากลาง","lat":17.4631,"lon":102.21227,"project_type":"โครงการ คจก."},"geometry":{"type":"Point","coordinates":[102.21227,17.4631]}},{"type":"Feature","properties":{"feature_group":"reservoir_project_highlight","reservoir_order":11,"project_name":"อ่างเก็บน้ำห้วยลำใย","village":"เกษมมณี","tambon":"ดงสวรรค์","amphoe":"นากลาง","lat":17.4455,"lon":102.2266,"project_type":"โครงการ คจก."},"geometry":{"type":"Point","coordinates":[102.2266,17.4455]}},{"type":"Feature","properties":{"feature_group":"reservoir_project_highlight","reservoir_order":12,"project_name":"อ่างเก็บน้ำห้วยโป่งซาง","village":"ป่าแดงงาม","tambon":"กุดแห่","amphoe":"นากลาง","lat":17.3944,"lon":102.17153,"project_type":"เล็ก พระราชดำริ","completed_year":2536},"geometry":{"type":"Point","coordinates":[102.17153,17.3944]}},{"type":"Feature","properties":{"feature_group":"reservoir_project_highlight","reservoir_order":13,"project_name":"อ่างเก็บน้ำห้วยบ้านคลองเจริญ","village":"คลองเจริญ","tambon":"บุญทัน","amphoe":"สุวรรณคูหา","lat":17.5988,"lon":102.14758,"project_type":"เล็ก พระราชดำริ","capacity_mcm":0.623},"geometry":{"type":"Point","coordinates":[102.14758,17.5988]}},{"type":"Feature","properties":{"feature_group":"reservoir_project_highlight","reservoir_order":14,"project_name":"อ่างเก็บน้ำผาจ้ำน้ำ","village":"ภูเขาวง","tambon":"เทพคีรี","amphoe":"นาวัง","lat":17.2638,"lon":102.11873,"project_type":"เล็ก พระราชดำริ"},"geometry":{"type":"Point","coordinates":[102.11873,17.2638]}},{"type":"Feature","properties":{"feature_group":"reservoir_polygon_highlight","project_name":"อ่างเก็บน้ำห้วยยางเงาะ"},"geometry":{"type":"Polygon","coordinates":[[[102.51625,17.22664],[102.51637,17.22662],[102.51652,17.22653],[102.51678,17.22647],[102.51698,17.22645],[102.51732,17.22634],[102.5176,17.22637],[102.51782,17.22633],[102.51792,17.22626],[102.51801,17.22613],[102.51805,17.22605],[102.5181,17.22568],[102.51812,17.22559],[102.51811,17.22559],[102.51807,17.22561],[102.51798,17.22567],[102.51748,17.22595],[102.51689,17.22626],[102.51623,17.22663],[102.51625,17.22664]]]}},{"type":"Feature","properties":{"feature_group":"reservoir_polygon_highlight","project_name":"อ่างเก็บน้ำห้วยซับม่วง"},"geometry":{"type":"Polygon","coordinates":[[[102.08877,17.14789],[102.08885,17.14801],[102.08883,17.14817],[102.08868,17.14822],[102.08857,17.14831],[102.08858,17.14849],[102.0887,17.14863],[102.08895,17.14872],[102.08915,17.14877],[102.08915,17.14893],[102.08908,17.14911],[102.089,17.14924],[102.08904,17.14941],[102.08916,17.14962],[102.0892,17.14977],[102.08923,17.14992],[102.08933,17.14998],[102.08942,17.14997],[102.08964,17.14996],[102.08975,17.15009],[102.08982,17.15033],[102.08982,17.15051],[102.0897,17.15067],[102.0895,17.15075],[102.08935,17.15084],[102.08924,17.15106],[102.08912,17.1513],[102.08904,17.15153],[102.08905,17.1518],[102.0891,17.152],[102.0892,17.15209],[102.08935,17.15222],[102.0894,17.15239],[102.08951,17.15259],[102.0897,17.15267],[102.08992,17.15268],[102.09009,17.15273],[102.09054,17.15286],[102.09094,17.15269],[102.09104,17.15255],[102.09114,17.15245],[102.0912,17.15229],[102.09117,17.15215],[102.09115,17.15196],[102.09128,17.15177],[102.09152,17.15168],[102.09166,17.15167],[102.09176,17.15167],[102.09184,17.15161],[102.09193,17.15153],[102.09197,17.15143],[102.09197,17.15129],[102.09196,17.15118],[102.09201,17.15109],[102.09212,17.151],[102.09224,17.15095],[102.0923,17.15081],[102.09231,17.1507],[102.09244,17.15062],[102.09256,17.15059],[102.09265,17.15049],[102.09272,17.15037],[102.09286,17.15024],[102.093,17.15015],[102.09309,17.15007],[102.09313,17.14997],[102.09308,17.14984],[102.09313,17.14975],[102.09331,17.14972],[102.09338,17.14965],[102.09339,17.14949],[102.09329,17.14931],[102.09332,17.1492],[102.0934,17.14906],[102.09326,17.14896],[102.09303,17.14888],[102.09288,17.14876],[102.09309,17.14871],[102.0932,17.14874],[102.09334,17.14878],[102.09348,17.14885],[102.09359,17.14886],[102.09364,17.14882],[102.09368,17.1487],[102.09371,17.14859],[102.09389,17.14833],[102.09399,17.14816],[102.09407,17.14805],[102.09416,17.14795],[102.09413,17.14781],[102.09399,17.14779],[102.09381,17.1478],[102.09362,17.14785],[102.09352,17.14784],[102.09337,17.14778],[102.09334,17.14766],[102.09346,17.14757],[102.09373,17.14752],[102.09388,17.14756],[102.09412,17.14748],[102.09413,17.14743],[102.09412,17.14716],[102.09408,17.14699],[102.09118,17.14706],[102.08875,17.14779],[102.08877,17.14789]]]}},{"type":"Feature","properties":{"feature_group":"reservoir_polygon_highlight","project_name":"อ่างเก็บน้ำห้วยเหล่ายาง"},"geometry":{"type":"Polygon","coordinates":[[[102.45743,17.24377],[102.45751,17.24377],[102.45762,17.24367],[102.45803,17.24324],[102.45814,17.24318],[102.4582,17.24323],[102.4583,17.24342],[102.4584,17.24352],[102.45847,17.24352],[102.45861,17.2435],[102.45931,17.24304],[102.46012,17.24276],[102.46035,17.24276],[102.46063,17.24266],[102.46081,17.24269],[102.46062,17.24317],[102.46062,17.24337],[102.46073,17.24342],[102.46124,17.24312],[102.46142,17.24309],[102.462,17.24337],[102.46206,17.24351],[102.4622,17.24365],[102.46249,17.24376],[102.46303,17.24391],[102.46326,17.24403],[102.46338,17.24422],[102.46348,17.24428],[102.4636,17.2442],[102.4637,17.24401],[102.46372,17.24363],[102.46346,17.2432],[102.46345,17.24301],[102.46355,17.24254],[102.46348,17.24244],[102.46337,17.24233],[102.46326,17.24211],[102.46326,17.24197],[102.46318,17.24185],[102.46278,17.2417],[102.4626,17.24161],[102.46256,17.2415],[102.46255,17.24138],[102.46263,17.24119],[102.4628,17.24104],[102.46304,17.24096],[102.46336,17.24097],[102.46375,17.24123],[102.46383,17.24129],[102.46384,17.24129],[102.46393,17.24127],[102.46493,17.24047],[102.46515,17.24039],[102.46532,17.24033],[102.46539,17.24023],[102.46538,17.2401],[102.46513,17.23966],[102.46513,17.23952],[102.46514,17.23944],[102.46496,17.23932],[102.46483,17.23929],[102.46479,17.23913],[102.4649,17.23869],[102.46495,17.23852],[102.46484,17.23848],[102.46475,17.23849],[102.46445,17.23878],[102.46425,17.23883],[102.46413,17.23881],[102.46396,17.23865],[102.4639,17.23849],[102.46387,17.23844],[102.46358,17.23834],[102.46352,17.23829],[102.46341,17.2381],[102.4634,17.23799],[102.46343,17.23758],[102.46258,17.23753],[102.46096,17.23744],[102.46096,17.23761],[102.46094,17.23765],[102.46082,17.23773],[102.46078,17.23782],[102.46075,17.23807],[102.46075,17.23809],[102.46075,17.23848],[102.46061,17.23882],[102.46038,17.23929],[102.45988,17.23999],[102.45974,17.24012],[102.45948,17.24076],[102.45928,17.24104],[102.45915,17.24122],[102.45903,17.24133],[102.45884,17.2414],[102.45869,17.24147],[102.45844,17.2419],[102.45825,17.2422],[102.4577,17.24281],[102.45748,17.24323],[102.45739,17.24351],[102.45739,17.24371],[102.45743,17.24376],[102.45743,17.24377]]]}},{"type":"Feature","properties":{"feature_group":"reservoir_polygon_highlight","project_name":"อ่างเก็บน้ำบอง"},"geometry":{"type":"Polygon","coordinates":[[[102.40412,16.90938],[102.40403,16.90942],[102.40398,16.9095],[102.40401,16.90956],[102.40413,16.90971],[102.40428,16.90975],[102.40462,16.90965],[102.4052,16.90946],[102.40548,16.90949],[102.40582,16.90967],[102.40616,16.90965],[102.40651,16.90946],[102.40689,16.90953],[102.40731,16.90969],[102.40753,16.90982],[102.40761,16.91001],[102.40779,16.91012],[102.40815,16.91019],[102.40853,16.91013],[102.40857,16.91001],[102.40848,16.90979],[102.4082,16.90961],[102.4078,16.90948],[102.40725,16.90936],[102.40696,16.90927],[102.40654,16.90914],[102.40613,16.90896],[102.40574,16.90888],[102.40536,16.90886],[102.40496,16.90892],[102.4046,16.90908],[102.40425,16.90931],[102.40412,16.90938]]]}},{"type":"Feature","properties":{"feature_group":"reservoir_polygon_highlight","project_name":"อ่างเก็บน้ำห้วยสนามชัย"},"geometry":{"type":"Polygon","coordinates":[[[102.11801,17.43398],[102.11796,17.43405],[102.11783,17.43413],[102.11779,17.43419],[102.11783,17.43423],[102.11783,17.43432],[102.11773,17.43439],[102.1177,17.43448],[102.11766,17.43455],[102.11754,17.43462],[102.1174,17.43468],[102.11737,17.43477],[102.11754,17.4348],[102.1177,17.43472],[102.11787,17.43462],[102.11798,17.43453],[102.1182,17.43442],[102.11831,17.43447],[102.1184,17.43449],[102.1185,17.43442],[102.11859,17.43431],[102.11879,17.43422],[102.11902,17.43428],[102.11913,17.43435],[102.11914,17.43445],[102.11908,17.43455],[102.11894,17.4346],[102.11886,17.43469],[102.11885,17.43478],[102.11891,17.43495],[102.11888,17.43511],[102.11875,17.4353],[102.11867,17.43555],[102.11866,17.43569],[102.11873,17.43585],[102.1188,17.43601],[102.11866,17.43617],[102.11863,17.43628],[102.11862,17.43642],[102.11858,17.43661],[102.11841,17.43665],[102.11841,17.43675],[102.11841,17.43685],[102.11841,17.43695],[102.11848,17.43702],[102.1185,17.43711],[102.1185,17.43725],[102.1185,17.43744],[102.11849,17.43761],[102.11853,17.43772],[102.11857,17.43794],[102.11848,17.4382],[102.11838,17.43831],[102.11822,17.43843],[102.11804,17.43848],[102.11793,17.43857],[102.11811,17.43866],[102.1182,17.43859],[102.11829,17.43859],[102.11842,17.43852],[102.11857,17.43844],[102.11872,17.43835],[102.11877,17.43821],[102.11872,17.43805],[102.11882,17.43804],[102.11886,17.43793],[102.11888,17.43774],[102.11888,17.43755],[102.11888,17.43739],[102.11891,17.4372],[102.11897,17.43712],[102.11905,17.43702],[102.11927,17.43699],[102.11927,17.43698],[102.11926,17.43683],[102.11922,17.43666],[102.11916,17.43647],[102.11921,17.43629],[102.1193,17.43611],[102.11941,17.43596],[102.11949,17.43592],[102.11961,17.43587],[102.11961,17.4358],[102.11953,17.43574],[102.11952,17.43564],[102.11956,17.43538],[102.11965,17.43525],[102.11985,17.43505],[102.12007,17.4349],[102.12019,17.43489],[102.12023,17.43485],[102.12026,17.43475],[102.12031,17.43466],[102.12049,17.43456],[102.12064,17.4345],[102.12074,17.43433],[102.12088,17.43419],[102.12104,17.43417],[102.12111,17.4342],[102.1212,17.43423],[102.12125,17.43423],[102.1214,17.43418],[102.12136,17.43404],[102.12117,17.4337],[102.12066,17.43315],[102.12058,17.4332],[102.12056,17.43325],[102.1204,17.43338],[102.12019,17.43353],[102.12,17.43357],[102.11983,17.43356],[102.11971,17.43352],[102.11958,17.43343],[102.11943,17.43334],[102.11936,17.43331],[102.11929,17.43319],[102.1192,17.43319],[102.11906,17.43315],[102.11887,17.43308],[102.11858,17.43294],[102.11846,17.43288],[102.11839,17.43283],[102.11834,17.4329],[102.11835,17.43301],[102.11841,17.43307],[102.1185,17.43317],[102.11861,17.43326],[102.11868,17.43337],[102.11866,17.43344],[102.1186,17.43361],[102.11841,17.43366],[102.11822,17.43375],[102.11807,17.43382],[102.11802,17.43389],[102.11801,17.43398]]]}},{"type":"Feature","properties":{"feature_group":"reservoir_polygon_highlight","project_name":"อ่างเก็บน้ำผาวัง"},"geometry":{"type":"Polygon","coordinates":[[[102.02938,17.29362],[102.02916,17.29365],[102.0289,17.29364],[102.0289,17.2938],[102.0289,17.29405],[102.02894,17.29422],[102.02904,17.29436],[102.02926,17.29443],[102.02944,17.29448],[102.02947,17.29457],[102.02949,17.29477],[102.02961,17.29498],[102.02985,17.29512],[102.0299,17.29514],[102.03013,17.2952],[102.03023,17.2952],[102.0305,17.29515],[102.03075,17.29517],[102.03083,17.29526],[102.03077,17.29546],[102.03092,17.29556],[102.03107,17.29545],[102.03116,17.29551],[102.03132,17.29567],[102.03142,17.29588],[102.03153,17.29611],[102.03168,17.2963],[102.03165,17.29647],[102.03152,17.29646],[102.03142,17.29658],[102.03142,17.29691],[102.03124,17.29701],[102.03086,17.29702],[102.03111,17.29759],[102.03123,17.29764],[102.03152,17.29777],[102.03166,17.29789],[102.03167,17.29834],[102.03179,17.29879],[102.03183,17.29902],[102.03186,17.29923],[102.03183,17.2994],[102.03189,17.29971],[102.03203,17.2999],[102.03203,17.30012],[102.03199,17.30027],[102.03213,17.30054],[102.03212,17.30074],[102.03198,17.30099],[102.03164,17.30119],[102.03133,17.30126],[102.03126,17.3012],[102.03119,17.30101],[102.03107,17.30098],[102.03086,17.30091],[102.03051,17.30061],[102.03032,17.30058],[102.03017,17.30063],[102.03006,17.30067],[102.0301,17.30078],[102.03029,17.30092],[102.03034,17.30103],[102.03022,17.3012],[102.03033,17.30146],[102.03048,17.30167],[102.03057,17.30184],[102.0305,17.30204],[102.03063,17.3022],[102.03077,17.30256],[102.03091,17.30287],[102.03094,17.30302],[102.03108,17.30322],[102.03116,17.30333],[102.03123,17.30346],[102.03144,17.30347],[102.03148,17.30348],[102.03161,17.30351],[102.03166,17.30343],[102.03185,17.30323],[102.03172,17.30273],[102.03176,17.30267],[102.03212,17.3026],[102.0322,17.30263],[102.03224,17.3031],[102.0323,17.30311],[102.03248,17.30312],[102.03269,17.30314],[102.03275,17.30321],[102.03295,17.30325],[102.03316,17.30327],[102.03328,17.30383],[102.03351,17.30388],[102.03357,17.30405],[102.03364,17.3044],[102.03357,17.30521],[102.03356,17.30546],[102.03371,17.30552],[102.03375,17.30571],[102.03486,17.3054],[102.03496,17.30559],[102.03588,17.30533],[102.03602,17.30521],[102.03644,17.30503],[102.03643,17.30498],[102.0367,17.30485],[102.03686,17.30525],[102.03689,17.30527],[102.03705,17.30532],[102.0373,17.3054],[102.03742,17.3055],[102.03744,17.30568],[102.03747,17.30595],[102.03733,17.30623],[102.03712,17.30629],[102.03687,17.30639],[102.0365,17.30642],[102.03626,17.30649],[102.03627,17.30663],[102.03626,17.30699],[102.03633,17.30707],[102.03642,17.30724],[102.03637,17.30741],[102.03637,17.30756],[102.0362,17.30777],[102.03596,17.30785],[102.03587,17.30797],[102.03592,17.30809],[102.03605,17.30822],[102.03605,17.30833],[102.03587,17.30847],[102.03577,17.30862],[102.03557,17.30887],[102.03534,17.30897],[102.03517,17.30905],[102.03508,17.30909],[102.03503,17.30925],[102.03523,17.30946],[102.03538,17.30933],[102.03554,17.3094],[102.03573,17.30962],[102.03588,17.3097],[102.03604,17.30957],[102.03608,17.30955],[102.03632,17.3093],[102.03655,17.30929],[102.03699,17.30944],[102.03718,17.30925],[102.03748,17.30924],[102.03746,17.30944],[102.03752,17.30946],[102.0377,17.30935],[102.03786,17.30942],[102.03801,17.30939],[102.03808,17.30926],[102.038,17.30901],[102.03802,17.30881],[102.0381,17.30866],[102.03838,17.3085],[102.03867,17.30848],[102.0388,17.30856],[102.03896,17.3087],[102.03901,17.30886],[102.03901,17.30906],[102.03908,17.30929],[102.03916,17.30939],[102.03906,17.30957],[102.0387,17.31001],[102.03829,17.31025],[102.03847,17.31108],[102.0386,17.31102],[102.0388,17.31087],[102.03919,17.31087],[102.03954,17.31091],[102.03954,17.31084],[102.03944,17.31059],[102.03965,17.31061],[102.03984,17.31057],[102.04007,17.31052],[102.04045,17.31019],[102.04071,17.30986],[102.04087,17.30943],[102.04132,17.30922],[102.04139,17.30919],[102.04182,17.30894],[102.04227,17.30883],[102.04229,17.30882],[102.04279,17.30871],[102.04311,17.30858],[102.04339,17.30847],[102.0434,17.30832],[102.04352,17.30777],[102.04361,17.30548],[102.04353,17.30522],[102.04343,17.30517],[102.04334,17.30487],[102.04325,17.30457],[102.0434,17.30447],[102.04375,17.30435],[102.04389,17.30411],[102.04374,17.30406],[102.04375,17.30386],[102.04385,17.30354],[102.04408,17.30341],[102.04408,17.30318],[102.04407,17.30271],[102.04409,17.30264],[102.04416,17.30237],[102.04436,17.302],[102.04443,17.30169],[102.04448,17.30147],[102.04461,17.30132],[102.04462,17.30122],[102.0445,17.30124],[102.04432,17.3013],[102.04414,17.30135],[102.04406,17.30137],[102.04383,17.30151],[102.04374,17.30151],[102.0436,17.30155],[102.04363,17.30176],[102.04339,17.30197],[102.04327,17.30206],[102.04307,17.30222],[102.04307,17.30223],[102.04306,17.30243],[102.04291,17.30259],[102.04258,17.30282],[102.04256,17.30292],[102.04256,17.3031],[102.04255,17.30331],[102.04239,17.30342],[102.04224,17.30353],[102.0418,17.30355],[102.04166,17.30329],[102.04141,17.30359],[102.04136,17.30381],[102.04136,17.30408],[102.04126,17.30422],[102.04088,17.30444],[102.04065,17.30472],[102.04069,17.30496],[102.04092,17.30529],[102.0408,17.30553],[102.04058,17.30595],[102.04019,17.30605],[102.0399,17.30608],[102.03969,17.30599],[102.03955,17.30578],[102.03929,17.30554],[102.03907,17.30524],[102.03884,17.30508],[102.03867,17.30499],[102.03856,17.30471],[102.03846,17.30463],[102.03838,17.30441],[102.03845,17.30424],[102.03862,17.30399],[102.03887,17.30354],[102.03903,17.30334],[102.03915,17.30311],[102.03938,17.3028],[102.03968,17.30266],[102.03983,17.30246],[102.03988,17.30226],[102.03983,17.30221],[102.03968,17.30227],[102.03931,17.30242],[102.0389,17.30261],[102.03883,17.30278],[102.03865,17.30268],[102.03836,17.30268],[102.03812,17.30275],[102.03823,17.30294],[102.03827,17.30313],[102.03817,17.30341],[102.03802,17.30365],[102.03748,17.3038],[102.03748,17.30396],[102.0373,17.30394],[102.03721,17.30381],[102.03705,17.30372],[102.03692,17.30361],[102.03665,17.30347],[102.03632,17.30343],[102.03603,17.30334],[102.03574,17.30325],[102.03544,17.30322],[102.03492,17.3031],[102.03474,17.30305],[102.03463,17.30288],[102.03452,17.30267],[102.03452,17.30239],[102.03449,17.30227],[102.03436,17.30241],[102.03422,17.30237],[102.03409,17.30228],[102.03367,17.30187],[102.03368,17.3016],[102.03358,17.30155],[102.03339,17.30143],[102.03321,17.30119],[102.03307,17.30089],[102.03332,17.30036],[102.03321,17.30032],[102.03305,17.30022],[102.03294,17.30005],[102.03273,17.29975],[102.03266,17.29951],[102.03263,17.29922],[102.03262,17.29889],[102.03251,17.29864],[102.03235,17.29863],[102.03235,17.29843],[102.03245,17.29839],[102.03256,17.29826],[102.03253,17.29801],[102.03239,17.29781],[102.03223,17.29764],[102.03207,17.29751],[102.03194,17.29733],[102.03185,17.29713],[102.03172,17.29696],[102.03178,17.29658],[102.03185,17.29635],[102.03201,17.29629],[102.0321,17.29645],[102.03228,17.29658],[102.03243,17.29652],[102.03243,17.29641],[102.03235,17.29617],[102.03223,17.2959],[102.03221,17.2957],[102.03224,17.29497],[102.03228,17.29441],[102.03228,17.2944],[102.03217,17.29411],[102.03213,17.29409],[102.03182,17.29415],[102.03156,17.29415],[102.03153,17.29405],[102.03179,17.2939],[102.03176,17.29376],[102.03166,17.29371],[102.03166,17.29371],[102.0316,17.29357],[102.03154,17.29342],[102.03149,17.29326],[102.03131,17.29323],[102.03107,17.29328],[102.03095,17.29328],[102.03081,17.29316],[102.03065,17.29303],[102.03065,17.29287],[102.03077,17.29278],[102.03078,17.29277],[102.03087,17.29266],[102.03066,17.29251],[102.03038,17.29262],[102.03015,17.29285],[102.03023,17.29308],[102.03019,17.29329],[102.03003,17.29342],[102.02959,17.29356],[102.02958,17.29356],[102.02938,17.29362]]]}},{"type":"Feature","properties":{"feature_group":"reservoir_polygon_highlight","project_name":"อ่างเก็บน้ำห้วยลาดกั่ว"},"geometry":{"type":"Polygon","coordinates":[[[102.07332,17.40667],[102.07358,17.4069],[102.07361,17.40692],[102.07386,17.40695],[102.07425,17.40699],[102.07454,17.40704],[102.07455,17.40717],[102.0745,17.40727],[102.07455,17.40731],[102.07457,17.40725],[102.0747,17.40719],[102.07475,17.40727],[102.07468,17.40744],[102.07472,17.40744],[102.07479,17.40748],[102.07478,17.40756],[102.07481,17.40756],[102.0749,17.40761],[102.07494,17.40768],[102.07486,17.40796],[102.07492,17.40788],[102.07501,17.40774],[102.07516,17.40756],[102.07538,17.40739],[102.07557,17.40737],[102.07571,17.40738],[102.07575,17.40741],[102.07581,17.40745],[102.07589,17.40751],[102.07599,17.40756],[102.07607,17.4076],[102.07607,17.4075],[102.07609,17.40749],[102.07622,17.40749],[102.07637,17.40749],[102.07646,17.40754],[102.07655,17.40767],[102.07664,17.40781],[102.07673,17.40797],[102.07685,17.408],[102.07688,17.40807],[102.07696,17.40809],[102.0771,17.40814],[102.07724,17.40823],[102.07732,17.40831],[102.07736,17.40843],[102.07737,17.40852],[102.0774,17.40858],[102.07749,17.40863],[102.07758,17.40868],[102.07769,17.40876],[102.07777,17.40884],[102.07785,17.40891],[102.07787,17.40886],[102.07787,17.40872],[102.07791,17.4086],[102.07798,17.40853],[102.07808,17.40857],[102.07822,17.40859],[102.07832,17.40868],[102.07837,17.40876],[102.07845,17.4089],[102.07851,17.40895],[102.07861,17.40902],[102.07869,17.40911],[102.07884,17.40921],[102.07894,17.40931],[102.07908,17.40941],[102.07921,17.4095],[102.07921,17.40957],[102.07919,17.40967],[102.07916,17.40978],[102.07916,17.40988],[102.07914,17.40999],[102.07914,17.41014],[102.07915,17.41015],[102.07923,17.4102],[102.07923,17.4103],[102.07918,17.41038],[102.07928,17.41044],[102.07939,17.41053],[102.07944,17.41052],[102.07952,17.4105],[102.07957,17.41055],[102.07958,17.4107],[102.0796,17.41082],[102.07972,17.41086],[102.07992,17.41097],[102.08001,17.41098],[102.08009,17.41106],[102.08009,17.41108],[102.08019,17.41112],[102.08031,17.41116],[102.08032,17.41111],[102.08033,17.41106],[102.08034,17.41092],[102.08037,17.41088],[102.08053,17.41079],[102.08068,17.41056],[102.08069,17.41029],[102.08067,17.41013],[102.08065,17.40987],[102.08057,17.4097],[102.08045,17.40953],[102.08036,17.40927],[102.08019,17.40906],[102.08018,17.40895],[102.08024,17.40887],[102.08037,17.40882],[102.08048,17.40884],[102.08058,17.40889],[102.0807,17.40896],[102.08077,17.40896],[102.08078,17.40882],[102.08085,17.40872],[102.08096,17.40861],[102.0812,17.40855],[102.08134,17.40864],[102.08146,17.4087],[102.0816,17.40872],[102.08176,17.40878],[102.08186,17.40878],[102.08193,17.40884],[102.082,17.4089],[102.08211,17.40899],[102.08214,17.4091],[102.08216,17.40925],[102.08222,17.40938],[102.08221,17.40952],[102.08234,17.40962],[102.08241,17.40961],[102.08241,17.40947],[102.08233,17.40934],[102.08227,17.40919],[102.08229,17.40904],[102.08233,17.40897],[102.08252,17.40894],[102.08273,17.409],[102.08286,17.40908],[102.08289,17.40927],[102.08292,17.40932],[102.08294,17.4093],[102.08296,17.40928],[102.08299,17.40924],[102.08298,17.40917],[102.08296,17.40909],[102.08287,17.40899],[102.08279,17.40892],[102.08272,17.40886],[102.0826,17.4088],[102.08223,17.40876],[102.08207,17.40871],[102.08197,17.40862],[102.08176,17.40858],[102.08143,17.40839],[102.08119,17.40823],[102.08106,17.40809],[102.08099,17.40779],[102.08094,17.40746],[102.08084,17.40728],[102.08076,17.4072],[102.08062,17.40717],[102.08046,17.40711],[102.08033,17.40698],[102.08041,17.40689],[102.08043,17.40681],[102.08012,17.40673],[102.08006,17.40665],[102.07998,17.40666],[102.07989,17.40668],[102.07977,17.40665],[102.07975,17.40658],[102.0797,17.40647],[102.07968,17.4064],[102.07976,17.40613],[102.07925,17.40598],[102.07876,17.40596],[102.07773,17.40601],[102.07581,17.40619],[102.0739,17.40634],[102.07358,17.4064],[102.07346,17.40641],[102.07306,17.40643],[102.07332,17.40667]]]}},{"type":"Feature","properties":{"feature_group":"reservoir_polygon_highlight","project_name":"อ่างเก็บน้ำห้วยโซ่"},"geometry":{"type":"Polygon","coordinates":[[[102.10878,17.59973],[102.10897,17.59993],[102.10903,17.60002],[102.10925,17.60014],[102.10949,17.60014],[102.10963,17.60015],[102.10978,17.60017],[102.11008,17.60031],[102.11047,17.60028],[102.11068,17.60054],[102.11079,17.60067],[102.11108,17.60102],[102.11107,17.60123],[102.11102,17.60148],[102.11101,17.60169],[102.11108,17.60178],[102.11117,17.60196],[102.11106,17.60241],[102.11116,17.60248],[102.11128,17.60267],[102.11141,17.60285],[102.11145,17.60304],[102.11176,17.60318],[102.11185,17.60299],[102.11192,17.60279],[102.11201,17.60276],[102.11215,17.6028],[102.11216,17.6029],[102.11234,17.60302],[102.11242,17.60314],[102.11217,17.60332],[102.11215,17.60345],[102.11215,17.60382],[102.11199,17.6041],[102.11179,17.60423],[102.11184,17.60443],[102.11177,17.60448],[102.11193,17.60458],[102.11193,17.60463],[102.1118,17.6048],[102.11189,17.60493],[102.1118,17.6051],[102.11176,17.60523],[102.11178,17.60535],[102.11184,17.60544],[102.11193,17.60535],[102.11209,17.6052],[102.11206,17.60509],[102.1122,17.60492],[102.11258,17.60409],[102.11272,17.60391],[102.11316,17.60408],[102.11331,17.60417],[102.11371,17.60419],[102.11382,17.60429],[102.11393,17.60453],[102.114,17.60463],[102.11437,17.60474],[102.11459,17.60474],[102.11477,17.60456],[102.11479,17.60432],[102.11497,17.60419],[102.11507,17.60416],[102.11514,17.60415],[102.11575,17.60211],[102.11579,17.60175],[102.11572,17.60156],[102.11555,17.60154],[102.11561,17.60129],[102.11561,17.60107],[102.11542,17.60087],[102.11541,17.60072],[102.11544,17.60052],[102.11536,17.6003],[102.11536,17.60017],[102.11535,17.60008],[102.11535,17.59985],[102.11562,17.59942],[102.11565,17.59882],[102.1157,17.59848],[102.11593,17.59837],[102.11595,17.5983],[102.11597,17.5981],[102.11592,17.598],[102.11564,17.59796],[102.11548,17.59815],[102.11531,17.59819],[102.11511,17.59837],[102.11507,17.59861],[102.11497,17.59874],[102.11472,17.59894],[102.11451,17.59923],[102.11424,17.59945],[102.11391,17.59971],[102.11382,17.59988],[102.11354,17.59997],[102.11353,17.60006],[102.11346,17.60036],[102.11316,17.60052],[102.11284,17.60113],[102.11254,17.60111],[102.11248,17.60086],[102.11227,17.60054],[102.11212,17.60014],[102.11214,17.59989],[102.11211,17.59972],[102.11199,17.59952],[102.11194,17.59945],[102.11193,17.5992],[102.11203,17.59898],[102.11212,17.59877],[102.11199,17.59876],[102.11178,17.59876],[102.11169,17.59868],[102.11162,17.59864],[102.11146,17.59869],[102.11144,17.59884],[102.11143,17.59887],[102.11129,17.59884],[102.11125,17.59872],[102.11119,17.59865],[102.1111,17.59872],[102.11097,17.59883],[102.11075,17.59876],[102.11073,17.59886],[102.11086,17.59953],[102.11073,17.59961],[102.11039,17.59961],[102.11006,17.59954],[102.11001,17.5994],[102.10985,17.59953],[102.1095,17.5995],[102.10908,17.59936],[102.10891,17.59915],[102.1088,17.59935],[102.10876,17.59944],[102.10874,17.59948],[102.1087,17.59969],[102.10878,17.59973]]]}},{"type":"Feature","properties":{"feature_group":"reservoir_polygon_highlight","project_name":"อ่างเก็บน้ำห้วยไร่ 1"},"geometry":{"type":"Polygon","coordinates":[[[102.17877,17.4837],[102.17881,17.4837],[102.17884,17.4837],[102.17882,17.48358],[102.1786,17.4822],[102.17695,17.48271],[102.17687,17.4833],[102.17688,17.48334],[102.17877,17.4837]]]}},{"type":"Feature","properties":{"feature_group":"reservoir_polygon_highlight","project_name":"อ่างเก็บน้ำห้วยไร่ 2"},"geometry":{"type":"Polygon","coordinates":[[[102.20141,17.46501],[102.20145,17.46507],[102.20152,17.46517],[102.20156,17.46525],[102.20159,17.46534],[102.2016,17.46548],[102.20154,17.4656],[102.20161,17.46574],[102.20172,17.46593],[102.20192,17.46619],[102.20188,17.46631],[102.20172,17.46644],[102.20168,17.46661],[102.20182,17.46663],[102.20215,17.46653],[102.20242,17.46653],[102.20254,17.46653],[102.20259,17.46663],[102.20255,17.46676],[102.20249,17.46698],[102.20259,17.46703],[102.20278,17.46711],[102.20292,17.46704],[102.20305,17.46687],[102.20322,17.46683],[102.20327,17.4669],[102.2034,17.46697],[102.20365,17.46689],[102.20382,17.46676],[102.2038,17.46645],[102.20392,17.46643],[102.20392,17.46632],[102.20393,17.46615],[102.20396,17.46596],[102.20397,17.46583],[102.20409,17.46566],[102.20434,17.46547],[102.20442,17.46543],[102.20451,17.46544],[102.20462,17.46552],[102.20476,17.46552],[102.20498,17.46552],[102.20503,17.46556],[102.20503,17.46566],[102.20497,17.46582],[102.205,17.46595],[102.20508,17.46599],[102.2052,17.4659],[102.20524,17.46585],[102.20532,17.46575],[102.20532,17.46569],[102.20544,17.46557],[102.20556,17.46549],[102.20568,17.46548],[102.20577,17.46541],[102.20582,17.46532],[102.20599,17.46524],[102.20606,17.46524],[102.20617,17.46525],[102.20628,17.46529],[102.20637,17.46537],[102.20649,17.46533],[102.20656,17.46521],[102.20662,17.46504],[102.20672,17.46489],[102.2068,17.46481],[102.20689,17.46461],[102.20697,17.46461],[102.20711,17.46454],[102.20734,17.46441],[102.20746,17.46427],[102.2075,17.46441],[102.20761,17.46441],[102.20774,17.4643],[102.20778,17.46419],[102.20791,17.464],[102.20808,17.46394],[102.20849,17.46379],[102.20871,17.46361],[102.20894,17.46359],[102.20927,17.46339],[102.20982,17.46321],[102.21003,17.46311],[102.21057,17.46299],[102.21094,17.46289],[102.2113,17.46284],[102.21151,17.46285],[102.21168,17.46289],[102.21184,17.46302],[102.21198,17.46322],[102.21214,17.46334],[102.21241,17.46335],[102.212,17.46105],[102.21193,17.46104],[102.2119,17.46104],[102.21184,17.461],[102.21171,17.46093],[102.21168,17.46094],[102.21157,17.46094],[102.21143,17.46099],[102.21122,17.46087],[102.21108,17.46087],[102.21093,17.46089],[102.21084,17.46097],[102.21064,17.46111],[102.21053,17.46111],[102.21041,17.46106],[102.21026,17.46105],[102.21005,17.46117],[102.20988,17.4612],[102.20955,17.46107],[102.2093,17.46097],[102.20898,17.46085],[102.20877,17.46067],[102.20855,17.46048],[102.20846,17.46027],[102.20836,17.46009],[102.20806,17.45993],[102.20788,17.45979],[102.20753,17.45967],[102.20745,17.45945],[102.20695,17.4593],[102.20679,17.45925],[102.20668,17.45915],[102.20662,17.45901],[102.20646,17.45894],[102.20642,17.45879],[102.20618,17.45889],[102.20606,17.45875],[102.20588,17.45875],[102.20588,17.45885],[102.20599,17.45892],[102.20618,17.45905],[102.20633,17.45914],[102.20645,17.45922],[102.20651,17.45933],[102.20662,17.45945],[102.20677,17.45958],[102.20692,17.45959],[102.20705,17.4597],[102.2072,17.45989],[102.20731,17.46004],[102.20747,17.46024],[102.20755,17.46048],[102.20756,17.46067],[102.20745,17.46079],[102.20736,17.46094],[102.20736,17.46108],[102.20741,17.46125],[102.20754,17.46136],[102.2076,17.46158],[102.2076,17.46178],[102.20756,17.46186],[102.20739,17.46197],[102.20716,17.46205],[102.20698,17.46212],[102.20676,17.46205],[102.20655,17.46199],[102.20633,17.46188],[102.20615,17.46186],[102.20589,17.46175],[102.20572,17.4617],[102.20556,17.46144],[102.2055,17.46133],[102.20539,17.46124],[102.20527,17.46122],[102.20523,17.46116],[102.20522,17.46101],[102.20513,17.46089],[102.20508,17.46074],[102.20502,17.46074],[102.20495,17.46079],[102.20497,17.46091],[102.20505,17.46111],[102.20496,17.46126],[102.20492,17.46134],[102.20492,17.46135],[102.20494,17.46143],[102.20497,17.46155],[102.20497,17.46167],[102.20497,17.46177],[102.20502,17.46191],[102.2051,17.46208],[102.20509,17.4622],[102.205,17.4623],[102.20501,17.46237],[102.2051,17.46238],[102.20508,17.4625],[102.20502,17.46257],[102.20491,17.46266],[102.2046,17.46287],[102.20361,17.46333],[102.20354,17.46334],[102.20339,17.46324],[102.20326,17.46324],[102.20315,17.46319],[102.20308,17.46309],[102.20298,17.46305],[102.20289,17.46299],[102.20286,17.46289],[102.20279,17.46275],[102.20278,17.46267],[102.2029,17.46235],[102.20273,17.46227],[102.20268,17.46228],[102.20256,17.46243],[102.20245,17.46257],[102.20226,17.46278],[102.20216,17.46302],[102.20216,17.46329],[102.20216,17.46343],[102.2022,17.46357],[102.20219,17.46368],[102.20216,17.46384],[102.20216,17.46396],[102.20222,17.46408],[102.20231,17.4642],[102.20235,17.46444],[102.20221,17.46459],[102.20217,17.46464],[102.20214,17.46468],[102.20204,17.46472],[102.2019,17.46468],[102.20184,17.46476],[102.20168,17.4648],[102.20158,17.46482],[102.20152,17.46487],[102.20141,17.4649],[102.20141,17.46501]]]}},{"type":"Feature","properties":{"feature_group":"reservoir_polygon_highlight","project_name":"อ่างเก็บน้ำห้วยลำใย"},"geometry":{"type":"Polygon","coordinates":[[[102.22448,17.44148],[102.22486,17.44169],[102.2252,17.44198],[102.22538,17.44219],[102.22547,17.44229],[102.2256,17.44225],[102.22572,17.44245],[102.22559,17.44274],[102.22563,17.44294],[102.22577,17.443],[102.22596,17.44309],[102.22611,17.44315],[102.22628,17.44338],[102.22632,17.4436],[102.22631,17.4437],[102.22644,17.44391],[102.22646,17.44409],[102.22645,17.44436],[102.22639,17.44446],[102.22626,17.44458],[102.22628,17.44474],[102.22636,17.44488],[102.2263,17.44492],[102.226,17.44506],[102.22608,17.44512],[102.22621,17.44525],[102.22635,17.44545],[102.22635,17.44556],[102.22646,17.44556],[102.2265,17.4455],[102.2274,17.44482],[102.22832,17.44408],[102.22845,17.44397],[102.22848,17.44393],[102.22828,17.44389],[102.22797,17.44354],[102.22804,17.44332],[102.22804,17.44316],[102.22789,17.4431],[102.22753,17.44307],[102.22745,17.44291],[102.22752,17.44272],[102.22752,17.44266],[102.22729,17.44256],[102.2271,17.44251],[102.22682,17.44257],[102.22665,17.44241],[102.22672,17.44229],[102.22668,17.44212],[102.22655,17.44198],[102.22651,17.44182],[102.22639,17.44157],[102.22631,17.44143],[102.2261,17.44132],[102.22597,17.4414],[102.2259,17.44152],[102.22575,17.44152],[102.22557,17.44133],[102.22555,17.44133],[102.22531,17.44121],[102.22506,17.44102],[102.22492,17.44074],[102.22477,17.44051],[102.22465,17.44034],[102.22472,17.44012],[102.22461,17.43996],[102.22447,17.43967],[102.22447,17.43951],[102.22439,17.43934],[102.22412,17.43926],[102.22386,17.43913],[102.22372,17.43885],[102.22361,17.43872],[102.22366,17.4385],[102.22366,17.4384],[102.22341,17.43835],[102.22326,17.43852],[102.22315,17.43847],[102.2229,17.43831],[102.22269,17.43839],[102.22273,17.43855],[102.2229,17.43867],[102.22289,17.4389],[102.22291,17.43902],[102.22321,17.43902],[102.22335,17.43911],[102.22358,17.43943],[102.22356,17.43966],[102.22333,17.43966],[102.22315,17.4398],[102.22313,17.44006],[102.223,17.44022],[102.22295,17.44046],[102.22323,17.44033],[102.22353,17.44004],[102.22364,17.43992],[102.22372,17.44009],[102.22399,17.4404],[102.22416,17.4405],[102.22431,17.44071],[102.22441,17.44093],[102.22445,17.44114],[102.22442,17.44134],[102.22438,17.44144],[102.22439,17.44144],[102.22448,17.44148]]]}},{"type":"Feature","properties":{"feature_group":"reservoir_polygon_highlight","project_name":"อ่างเก็บน้ำห้วยโป่งซาง"},"geometry":{"type":"Polygon","coordinates":[[[102.17053,17.39544],[102.17064,17.39545],[102.17074,17.39551],[102.17077,17.39564],[102.17081,17.39572],[102.17096,17.39572],[102.17106,17.39567],[102.17127,17.39573],[102.17129,17.39563],[102.17139,17.39546],[102.17145,17.39542],[102.17158,17.39541],[102.17163,17.39531],[102.1716,17.39513],[102.17152,17.39496],[102.17152,17.39483],[102.17163,17.39482],[102.17167,17.39491],[102.17177,17.39491],[102.17198,17.39488],[102.17209,17.39477],[102.17222,17.39462],[102.17249,17.3945],[102.17272,17.39449],[102.17284,17.39456],[102.17302,17.39459],[102.17328,17.3945],[102.17334,17.39433],[102.17352,17.39425],[102.17358,17.39411],[102.17346,17.39401],[102.17323,17.39416],[102.17299,17.39416],[102.17276,17.39431],[102.17254,17.3943],[102.17244,17.39425],[102.17247,17.39406],[102.17257,17.39395],[102.17256,17.39382],[102.17245,17.39381],[102.17231,17.39399],[102.17205,17.39412],[102.17184,17.39422],[102.17152,17.39411],[102.17134,17.39411],[102.17103,17.3943],[102.17087,17.39441],[102.17068,17.39467],[102.17049,17.39517],[102.17042,17.3954],[102.17053,17.39544]]]}},{"type":"Feature","properties":{"feature_group":"reservoir_polygon_highlight","project_name":"อ่างเก็บน้ำห้วยบ้านคลองเจริญ"},"geometry":{"type":"Polygon","coordinates":[[[102.1443,17.60365],[102.14446,17.60366],[102.14452,17.60362],[102.14451,17.60356],[102.14452,17.60347],[102.14473,17.60341],[102.14501,17.60332],[102.14529,17.60307],[102.14542,17.60292],[102.14551,17.60255],[102.14541,17.60246],[102.14527,17.60243],[102.1451,17.60242],[102.145,17.60235],[102.14506,17.60225],[102.14514,17.60218],[102.14538,17.60215],[102.14563,17.60208],[102.14592,17.60205],[102.14593,17.6019],[102.14594,17.60165],[102.14594,17.60158],[102.14592,17.60149],[102.14631,17.60108],[102.1463,17.60086],[102.14635,17.60071],[102.14652,17.6006],[102.14668,17.60064],[102.1468,17.60067],[102.14683,17.60069],[102.14685,17.60059],[102.147,17.60009],[102.14718,17.59951],[102.14732,17.59901],[102.14744,17.5986],[102.14765,17.59796],[102.14768,17.5978],[102.14766,17.5977],[102.14757,17.59748],[102.14743,17.59719],[102.14718,17.59671],[102.14694,17.59624],[102.14681,17.59601],[102.14673,17.59603],[102.14634,17.59608],[102.14612,17.59625],[102.14596,17.59637],[102.14596,17.59648],[102.14583,17.59669],[102.14568,17.597],[102.14568,17.59715],[102.14556,17.59728],[102.14525,17.59757],[102.14515,17.59766],[102.1452,17.59786],[102.14514,17.59808],[102.14498,17.59815],[102.14489,17.59823],[102.14491,17.59839],[102.14496,17.59843],[102.14505,17.59852],[102.14506,17.59874],[102.14513,17.59878],[102.14515,17.59895],[102.14518,17.59901],[102.14529,17.59902],[102.14542,17.59895],[102.14552,17.59894],[102.14564,17.59911],[102.14567,17.59933],[102.14563,17.59944],[102.14566,17.59967],[102.14563,17.59974],[102.14548,17.59984],[102.14524,17.59987],[102.1452,17.59992],[102.14532,17.60006],[102.14556,17.60018],[102.14564,17.60031],[102.14561,17.60045],[102.14552,17.60057],[102.14554,17.60086],[102.14548,17.6011],[102.14534,17.60123],[102.14508,17.60133],[102.14489,17.60141],[102.14475,17.60156],[102.14466,17.60172],[102.14459,17.60194],[102.14459,17.60208],[102.14455,17.60221],[102.1445,17.60238],[102.14453,17.60259],[102.14436,17.60281],[102.14436,17.60291],[102.14454,17.60303],[102.1447,17.60312],[102.14468,17.60321],[102.14461,17.60321],[102.14446,17.60323],[102.14439,17.60323],[102.14409,17.60338],[102.14426,17.60359],[102.14428,17.60362],[102.1443,17.60365]]]}},{"type":"Feature","properties":{"feature_group":"reservoir_polygon_highlight","project_name":"อ่างเก็บน้ำผาจ้ำน้ำ"},"geometry":{"type":"Polygon","coordinates":[[[102.12613,17.235],[102.12632,17.23501],[102.12651,17.23493],[102.12667,17.23486],[102.12676,17.23482],[102.12692,17.23476],[102.12705,17.23468],[102.12714,17.23455],[102.12725,17.23442],[102.12728,17.23432],[102.1273,17.23424],[102.12736,17.23417],[102.12749,17.23412],[102.12755,17.23406],[102.12768,17.23404],[102.12779,17.23399],[102.12785,17.23394],[102.12793,17.23386],[102.12799,17.23379],[102.12801,17.23368],[102.12818,17.23353],[102.12829,17.23353],[102.12837,17.23353],[102.1285,17.23361],[102.12855,17.23372],[102.12861,17.23379],[102.1286,17.23392],[102.12863,17.234],[102.12868,17.23411],[102.12876,17.23413],[102.12884,17.23421],[102.12911,17.23435],[102.12924,17.23437],[102.12943,17.23445],[102.12962,17.23446],[102.12978,17.23446],[102.12989,17.23446],[102.12996,17.23443],[102.13013,17.23436],[102.13073,17.23403],[102.13083,17.23289],[102.13086,17.23248],[102.1309,17.23206],[102.13052,17.2319],[102.13015,17.23179],[102.12999,17.23182],[102.12987,17.23197],[102.12943,17.23282],[102.12921,17.23295],[102.12905,17.23297],[102.12889,17.23297],[102.12878,17.23279],[102.12868,17.23258],[102.12846,17.23244],[102.12801,17.23236],[102.12782,17.23236],[102.12738,17.23277],[102.12705,17.23307],[102.127,17.23323],[102.12708,17.23331],[102.12718,17.23336],[102.12729,17.23344],[102.12734,17.23349],[102.12739,17.2336],[102.12739,17.23367],[102.12723,17.2338],[102.12679,17.23408],[102.12671,17.23421],[102.1266,17.23428],[102.12641,17.23439],[102.12622,17.23436],[102.12593,17.23427],[102.12563,17.23448],[102.12549,17.23479],[102.12613,17.235]]]}}]}